{
"type": "FeatureCollection",
"name": "libraries",
"crs": { "type": "name", "properties": { "name": "urn:ogc:def:crs:OGC:1.3:CRS84" } },
"features": [
{ "type": "Feature", "properties": { "element": "node", "id": 349002531 }, "geometry": { "type": "Point", "coordinates": [ 78.3493093, 17.445824 ] } },
{ "type": "Feature", "properties": { "element": "node", "id": 626897420 }, "geometry": { "type": "Point", "coordinates": [ 78.4782198, 17.3741567 ] } },
{ "type": "Feature", "properties": { "element": "node", "id": 1502798798 }, "geometry": { "type": "Point", "coordinates": [ 78.5076449, 17.4458873 ] } },
{ "type": "Feature", "properties": { "element": "node", "id": 1623389085 }, "geometry": { "type": "Point", "coordinates": [ 78.3603085, 17.4357658 ] } },
{ "type": "Feature", "properties": { "element": "node", "id": 2371734542 }, "geometry": { "type": "Point", "coordinates": [ 78.3910702, 17.4955924 ] } },
{ "type": "Feature", "properties": { "element": "node", "id": 2708670667 }, "geometry": { "type": "Point", "coordinates": [ 78.3912253, 17.493138 ] } },
{ "type": "Feature", "properties": { "element": "node", "id": 2715277398 }, "geometry": { "type": "Point", "coordinates": [ 78.4897641, 17.4064107 ] } },
{ "type": "Feature", "properties": { "element": "node", "id": 3997369742 }, "geometry": { "type": "Point", "coordinates": [ 78.3336958, 17.4666672 ] } },
{ "type": "Feature", "properties": { "element": "node", "id": 5905914145 }, "geometry": { "type": "Point", "coordinates": [ 78.3419489, 17.4266376 ] } },
{ "type": "Feature", "properties": { "element": "node", "id": 6684817723 }, "geometry": { "type": "Point", "coordinates": [ 78.4393395, 17.4424982 ] } },
{ "type": "Feature", "properties": { "element": "node", "id": 6873375852 }, "geometry": { "type": "Point", "coordinates": [ 78.4572081, 17.4334583 ] } },
{ "type": "Feature", "properties": { "element": "node", "id": 7039571990 }, "geometry": { "type": "Point", "coordinates": [ 78.4737802, 17.360097 ] } },
{ "type": "Feature", "properties": { "element": "node", "id": 7246812306 }, "geometry": { "type": "Point", "coordinates": [ 78.4420948, 17.3944255 ] } },
{ "type": "Feature", "properties": { "element": "node", "id": 7314630405 }, "geometry": { "type": "Point", "coordinates": [ 78.5505207, 17.4163782 ] } },
{ "type": "Feature", "properties": { "element": "node", "id": 8058819826 }, "geometry": { "type": "Point", "coordinates": [ 78.5051626, 17.3647584 ] } },
{ "type": "Feature", "properties": { "element": "node", "id": 10062747112 }, "geometry": { "type": "Point", "coordinates": [ 78.310131, 17.4736426 ] } },
{ "type": "Feature", "properties": { "element": "node", "id": 11736395786 }, "geometry": { "type": "Point", "coordinates": [ 78.392278, 17.4954539 ] } },
{ "type": "Feature", "properties": { "element": "node", "id": 11736398309 }, "geometry": { "type": "Point", "coordinates": [ 78.3918946, 17.4951344 ] } },
{ "type": "Feature", "properties": { "element": "node", "id": 11736410873 }, "geometry": { "type": "Point", "coordinates": [ 78.3914804, 17.4955402 ] } },
{ "type": "Feature", "properties": { "element": "relation", "id": 5314109 }, "geometry": { "type": "Point", "coordinates": [ 78.329552857563854, 17.452787115629615 ] } },
{ "type": "Feature", "properties": { "element": "way", "id": 129389883 }, "geometry": { "type": "Point", "coordinates": [ 78.391466057167719, 17.495547455789428 ] } },
{ "type": "Feature", "properties": { "element": "way", "id": 245756560 }, "geometry": { "type": "Point", "coordinates": [ 78.40181302617718, 17.313262695561715 ] } },
{ "type": "Feature", "properties": { "element": "way", "id": 265616074 }, "geometry": { "type": "Point", "coordinates": [ 78.491813080941711, 17.404010407437216 ] } },
{ "type": "Feature", "properties": { "element": "way", "id": 331354865 }, "geometry": { "type": "Point", "coordinates": [ 78.521172617891992, 17.399774905464874 ] } },
{ "type": "Feature", "properties": { "element": "way", "id": 332097885 }, "geometry": { "type": "Point", "coordinates": [ 78.39891395, 17.4036008 ] } },
{ "type": "Feature", "properties": { "element": "way", "id": 343600691 }, "geometry": { "type": "Point", "coordinates": [ 78.394126050000011, 17.4895448 ] } },
{ "type": "Feature", "properties": { "element": "way", "id": 346464897 }, "geometry": { "type": "Point", "coordinates": [ 78.391637645666634, 17.492979120816109 ] } },
{ "type": "Feature", "properties": { "element": "way", "id": 356236606 }, "geometry": { "type": "Point", "coordinates": [ 78.486005166722947, 17.506289774372664 ] } },
{ "type": "Feature", "properties": { "element": "way", "id": 357710794 }, "geometry": { "type": "Point", "coordinates": [ 78.500031677079761, 17.372437739916208 ] } },
{ "type": "Feature", "properties": { "element": "way", "id": 413843333 }, "geometry": { "type": "Point", "coordinates": [ 78.482269760053256, 17.411036652287365 ] } },
{ "type": "Feature", "properties": { "element": "way", "id": 740792958 }, "geometry": { "type": "Point", "coordinates": [ 78.485828701980495, 17.505396972330747 ] } }
]
}
