{
"type": "FeatureCollection",
"name": "pharmacies",
"crs": { "type": "name", "properties": { "name": "urn:ogc:def:crs:OGC:1.3:CRS84" } },
"features": [
{ "type": "Feature", "properties": { "element": "node", "id": 349267744 }, "geometry": { "type": "Point", "coordinates": [ 78.3916995, 17.4405212 ] } },
{ "type": "Feature", "properties": { "element": "node", "id": 349267752 }, "geometry": { "type": "Point", "coordinates": [ 78.3922165, 17.4411195 ] } },
{ "type": "Feature", "properties": { "element": "node", "id": 352750003 }, "geometry": { "type": "Point", "coordinates": [ 78.4415494, 17.4426699 ] } },
{ "type": "Feature", "properties": { "element": "node", "id": 352750005 }, "geometry": { "type": "Point", "coordinates": [ 78.4421888, 17.4423328 ] } },
{ "type": "Feature", "properties": { "element": "node", "id": 538425759 }, "geometry": { "type": "Point", "coordinates": [ 78.4503714, 17.4387093 ] } },
{ "type": "Feature", "properties": { "element": "node", "id": 538425762 }, "geometry": { "type": "Point", "coordinates": [ 78.4459528, 17.4417252 ] } },
{ "type": "Feature", "properties": { "element": "node", "id": 626897100 }, "geometry": { "type": "Point", "coordinates": [ 78.486492, 17.3674722 ] } },
{ "type": "Feature", "properties": { "element": "node", "id": 626897106 }, "geometry": { "type": "Point", "coordinates": [ 78.4875756, 17.3675439 ] } },
{ "type": "Feature", "properties": { "element": "node", "id": 626897116 }, "geometry": { "type": "Point", "coordinates": [ 78.4831017, 17.3675031 ] } },
{ "type": "Feature", "properties": { "element": "node", "id": 634123952 }, "geometry": { "type": "Point", "coordinates": [ 78.5123242, 17.4074716 ] } },
{ "type": "Feature", "properties": { "element": "node", "id": 634124246 }, "geometry": { "type": "Point", "coordinates": [ 78.5096265, 17.4023937 ] } },
{ "type": "Feature", "properties": { "element": "node", "id": 675642470 }, "geometry": { "type": "Point", "coordinates": [ 78.4890195, 17.4092213 ] } },
{ "type": "Feature", "properties": { "element": "node", "id": 698705213 }, "geometry": { "type": "Point", "coordinates": [ 78.4118211, 17.4172588 ] } },
{ "type": "Feature", "properties": { "element": "node", "id": 708303186 }, "geometry": { "type": "Point", "coordinates": [ 78.3917482, 17.4411848 ] } },
{ "type": "Feature", "properties": { "element": "node", "id": 726720120 }, "geometry": { "type": "Point", "coordinates": [ 78.4833865, 17.402194 ] } },
{ "type": "Feature", "properties": { "element": "node", "id": 727282352 }, "geometry": { "type": "Point", "coordinates": [ 78.4845254, 17.4026538 ] } },
{ "type": "Feature", "properties": { "element": "node", "id": 813571747 }, "geometry": { "type": "Point", "coordinates": [ 78.5185589, 17.4362518 ] } },
{ "type": "Feature", "properties": { "element": "node", "id": 888544512 }, "geometry": { "type": "Point", "coordinates": [ 78.366808, 17.468298 ] } },
{ "type": "Feature", "properties": { "element": "node", "id": 1215213707 }, "geometry": { "type": "Point", "coordinates": [ 78.3670206, 17.4633883 ] } },
{ "type": "Feature", "properties": { "element": "node", "id": 1215737491 }, "geometry": { "type": "Point", "coordinates": [ 78.3670261, 17.4634471 ] } },
{ "type": "Feature", "properties": { "element": "node", "id": 1271894841 }, "geometry": { "type": "Point", "coordinates": [ 78.5125806, 17.4943184 ] } },
{ "type": "Feature", "properties": { "element": "node", "id": 1306289182 }, "geometry": { "type": "Point", "coordinates": [ 78.498359, 17.483744 ] } },
{ "type": "Feature", "properties": { "element": "node", "id": 1384409243 }, "geometry": { "type": "Point", "coordinates": [ 78.3379522, 17.4339937 ] } },
{ "type": "Feature", "properties": { "element": "node", "id": 1435322780 }, "geometry": { "type": "Point", "coordinates": [ 78.532565, 17.4505716 ] } },
{ "type": "Feature", "properties": { "element": "node", "id": 1435322781 }, "geometry": { "type": "Point", "coordinates": [ 78.5319111, 17.4508429 ] } },
{ "type": "Feature", "properties": { "element": "node", "id": 1438259298 }, "geometry": { "type": "Point", "coordinates": [ 78.5353596, 17.4499816 ] } },
{ "type": "Feature", "properties": { "element": "node", "id": 1475758746 }, "geometry": { "type": "Point", "coordinates": [ 78.5119846, 17.4077819 ] } },
{ "type": "Feature", "properties": { "element": "node", "id": 1475764332 }, "geometry": { "type": "Point", "coordinates": [ 78.5096162, 17.4087775 ] } },
{ "type": "Feature", "properties": { "element": "node", "id": 1475769964 }, "geometry": { "type": "Point", "coordinates": [ 78.5105926, 17.4084729 ] } },
{ "type": "Feature", "properties": { "element": "node", "id": 1883471859 }, "geometry": { "type": "Point", "coordinates": [ 78.4387975, 17.4300426 ] } },
{ "type": "Feature", "properties": { "element": "node", "id": 2023647100 }, "geometry": { "type": "Point", "coordinates": [ 78.3953291, 17.4874234 ] } },
{ "type": "Feature", "properties": { "element": "node", "id": 2062758122 }, "geometry": { "type": "Point", "coordinates": [ 78.428122, 17.4299365 ] } },
{ "type": "Feature", "properties": { "element": "node", "id": 2217950115 }, "geometry": { "type": "Point", "coordinates": [ 78.5483031, 17.3498038 ] } },
{ "type": "Feature", "properties": { "element": "node", "id": 2217968805 }, "geometry": { "type": "Point", "coordinates": [ 78.3688683, 17.4339166 ] } },
{ "type": "Feature", "properties": { "element": "node", "id": 2217968808 }, "geometry": { "type": "Point", "coordinates": [ 78.3691605, 17.4335968 ] } },
{ "type": "Feature", "properties": { "element": "node", "id": 2217968809 }, "geometry": { "type": "Point", "coordinates": [ 78.3686269, 17.4341649 ] } },
{ "type": "Feature", "properties": { "element": "node", "id": 2426818372 }, "geometry": { "type": "Point", "coordinates": [ 78.444992, 17.4366712 ] } },
{ "type": "Feature", "properties": { "element": "node", "id": 2632337047 }, "geometry": { "type": "Point", "coordinates": [ 78.3951937, 17.4874835 ] } },
{ "type": "Feature", "properties": { "element": "node", "id": 2697624155 }, "geometry": { "type": "Point", "coordinates": [ 78.559006, 17.4822519 ] } },
{ "type": "Feature", "properties": { "element": "node", "id": 2708239888 }, "geometry": { "type": "Point", "coordinates": [ 78.5128218, 17.3989187 ] } },
{ "type": "Feature", "properties": { "element": "node", "id": 2708250115 }, "geometry": { "type": "Point", "coordinates": [ 78.5128753, 17.3990979 ] } },
{ "type": "Feature", "properties": { "element": "node", "id": 2710651432 }, "geometry": { "type": "Point", "coordinates": [ 78.5133161, 17.4020764 ] } },
{ "type": "Feature", "properties": { "element": "node", "id": 2710745213 }, "geometry": { "type": "Point", "coordinates": [ 78.5692786, 17.3297961 ] } },
{ "type": "Feature", "properties": { "element": "node", "id": 2710995718 }, "geometry": { "type": "Point", "coordinates": [ 78.4648219, 17.4055879 ] } },
{ "type": "Feature", "properties": { "element": "node", "id": 2712669248 }, "geometry": { "type": "Point", "coordinates": [ 78.4884852, 17.4135504 ] } },
{ "type": "Feature", "properties": { "element": "node", "id": 2715282383 }, "geometry": { "type": "Point", "coordinates": [ 78.4848769, 17.4064817 ] } },
{ "type": "Feature", "properties": { "element": "node", "id": 2715282529 }, "geometry": { "type": "Point", "coordinates": [ 78.4849788, 17.4064536 ] } },
{ "type": "Feature", "properties": { "element": "node", "id": 2779834584 }, "geometry": { "type": "Point", "coordinates": [ 78.485317, 17.4103726 ] } },
{ "type": "Feature", "properties": { "element": "node", "id": 2779870176 }, "geometry": { "type": "Point", "coordinates": [ 78.485199, 17.4104596 ] } },
{ "type": "Feature", "properties": { "element": "node", "id": 2787540713 }, "geometry": { "type": "Point", "coordinates": [ 78.3093251, 17.4739768 ] } },
{ "type": "Feature", "properties": { "element": "node", "id": 2794745063 }, "geometry": { "type": "Point", "coordinates": [ 78.4819554, 17.4404871 ] } },
{ "type": "Feature", "properties": { "element": "node", "id": 2794745066 }, "geometry": { "type": "Point", "coordinates": [ 78.4824751, 17.4401111 ] } },
{ "type": "Feature", "properties": { "element": "node", "id": 3010417732 }, "geometry": { "type": "Point", "coordinates": [ 78.3545957, 17.497025 ] } },
{ "type": "Feature", "properties": { "element": "node", "id": 3010422038 }, "geometry": { "type": "Point", "coordinates": [ 78.3559311, 17.4983584 ] } },
{ "type": "Feature", "properties": { "element": "node", "id": 3010422043 }, "geometry": { "type": "Point", "coordinates": [ 78.3567989, 17.5052186 ] } },
{ "type": "Feature", "properties": { "element": "node", "id": 3010422044 }, "geometry": { "type": "Point", "coordinates": [ 78.3566273, 17.505232 ] } },
{ "type": "Feature", "properties": { "element": "node", "id": 3010422048 }, "geometry": { "type": "Point", "coordinates": [ 78.3558148, 17.505765 ] } },
{ "type": "Feature", "properties": { "element": "node", "id": 3010422049 }, "geometry": { "type": "Point", "coordinates": [ 78.3551143, 17.5061317 ] } },
{ "type": "Feature", "properties": { "element": "node", "id": 3388902012 }, "geometry": { "type": "Point", "coordinates": [ 78.403187, 17.4940531 ] } },
{ "type": "Feature", "properties": { "element": "node", "id": 3388904097 }, "geometry": { "type": "Point", "coordinates": [ 78.4058535, 17.4964617 ] } },
{ "type": "Feature", "properties": { "element": "node", "id": 3395327470 }, "geometry": { "type": "Point", "coordinates": [ 78.4826422, 17.4070384 ] } },
{ "type": "Feature", "properties": { "element": "node", "id": 4209992292 }, "geometry": { "type": "Point", "coordinates": [ 78.5459288, 17.3723814 ] } },
{ "type": "Feature", "properties": { "element": "node", "id": 4400658190 }, "geometry": { "type": "Point", "coordinates": [ 78.4470605, 17.4467786 ] } },
{ "type": "Feature", "properties": { "element": "node", "id": 4407591791 }, "geometry": { "type": "Point", "coordinates": [ 78.4308591, 17.4222086 ] } },
{ "type": "Feature", "properties": { "element": "node", "id": 4614311310 }, "geometry": { "type": "Point", "coordinates": [ 78.4797682, 17.4402864 ] } },
{ "type": "Feature", "properties": { "element": "node", "id": 4665332403 }, "geometry": { "type": "Point", "coordinates": [ 78.332069, 17.493487 ] } },
{ "type": "Feature", "properties": { "element": "node", "id": 4670761890 }, "geometry": { "type": "Point", "coordinates": [ 78.412363, 17.4171713 ] } },
{ "type": "Feature", "properties": { "element": "node", "id": 4672021893 }, "geometry": { "type": "Point", "coordinates": [ 78.4025642, 17.4208629 ] } },
{ "type": "Feature", "properties": { "element": "node", "id": 4674755093 }, "geometry": { "type": "Point", "coordinates": [ 78.3136585, 17.487601 ] } },
{ "type": "Feature", "properties": { "element": "node", "id": 4674771291 }, "geometry": { "type": "Point", "coordinates": [ 78.3200137, 17.4787848 ] } },
{ "type": "Feature", "properties": { "element": "node", "id": 4674771689 }, "geometry": { "type": "Point", "coordinates": [ 78.3201835, 17.4781178 ] } },
{ "type": "Feature", "properties": { "element": "node", "id": 4677877511 }, "geometry": { "type": "Point", "coordinates": [ 78.411422, 17.417626 ] } },
{ "type": "Feature", "properties": { "element": "node", "id": 4679535110 }, "geometry": { "type": "Point", "coordinates": [ 78.3852477, 17.4746991 ] } },
{ "type": "Feature", "properties": { "element": "node", "id": 4693618891 }, "geometry": { "type": "Point", "coordinates": [ 78.3280937, 17.4895653 ] } },
{ "type": "Feature", "properties": { "element": "node", "id": 4693618990 }, "geometry": { "type": "Point", "coordinates": [ 78.327886, 17.4920821 ] } },
{ "type": "Feature", "properties": { "element": "node", "id": 4693649489 }, "geometry": { "type": "Point", "coordinates": [ 78.3279081, 17.4928168 ] } },
{ "type": "Feature", "properties": { "element": "node", "id": 4695594590 }, "geometry": { "type": "Point", "coordinates": [ 78.3276665, 17.4931295 ] } },
{ "type": "Feature", "properties": { "element": "node", "id": 4695632289 }, "geometry": { "type": "Point", "coordinates": [ 78.3276438, 17.4921633 ] } },
{ "type": "Feature", "properties": { "element": "node", "id": 4700634889 }, "geometry": { "type": "Point", "coordinates": [ 78.3236136, 17.4890237 ] } },
{ "type": "Feature", "properties": { "element": "node", "id": 4700634989 }, "geometry": { "type": "Point", "coordinates": [ 78.3320075, 17.4940886 ] } },
{ "type": "Feature", "properties": { "element": "node", "id": 4713368296 }, "geometry": { "type": "Point", "coordinates": [ 78.3201363, 17.4798944 ] } },
{ "type": "Feature", "properties": { "element": "node", "id": 4713368298 }, "geometry": { "type": "Point", "coordinates": [ 78.3201186, 17.4797494 ] } },
{ "type": "Feature", "properties": { "element": "node", "id": 4713381395 }, "geometry": { "type": "Point", "coordinates": [ 78.3202511, 17.48051 ] } },
{ "type": "Feature", "properties": { "element": "node", "id": 4713433191 }, "geometry": { "type": "Point", "coordinates": [ 78.3206338, 17.4832757 ] } },
{ "type": "Feature", "properties": { "element": "node", "id": 4713465890 }, "geometry": { "type": "Point", "coordinates": [ 78.3201033, 17.4796545 ] } },
{ "type": "Feature", "properties": { "element": "node", "id": 4716873492 }, "geometry": { "type": "Point", "coordinates": [ 78.4089445, 17.4145022 ] } },
{ "type": "Feature", "properties": { "element": "node", "id": 4752907441 }, "geometry": { "type": "Point", "coordinates": [ 78.3205102, 17.4851526 ] } },
{ "type": "Feature", "properties": { "element": "node", "id": 4764366410 }, "geometry": { "type": "Point", "coordinates": [ 78.3156528, 17.4836046 ] } },
{ "type": "Feature", "properties": { "element": "node", "id": 5178297919 }, "geometry": { "type": "Point", "coordinates": [ 78.325435, 17.4294933 ] } },
{ "type": "Feature", "properties": { "element": "node", "id": 5299367317 }, "geometry": { "type": "Point", "coordinates": [ 78.3570817, 17.4488131 ] } },
{ "type": "Feature", "properties": { "element": "node", "id": 5386342322 }, "geometry": { "type": "Point", "coordinates": [ 78.4539959, 17.3954892 ] } },
{ "type": "Feature", "properties": { "element": "node", "id": 5405055293 }, "geometry": { "type": "Point", "coordinates": [ 78.3660463, 17.437203 ] } },
{ "type": "Feature", "properties": { "element": "node", "id": 5405056433 }, "geometry": { "type": "Point", "coordinates": [ 78.3594294, 17.4413816 ] } },
{ "type": "Feature", "properties": { "element": "node", "id": 5539327278 }, "geometry": { "type": "Point", "coordinates": [ 78.5177113, 17.4195264 ] } },
{ "type": "Feature", "properties": { "element": "node", "id": 6151537452 }, "geometry": { "type": "Point", "coordinates": [ 78.3825693, 17.4503199 ] } },
{ "type": "Feature", "properties": { "element": "node", "id": 6191414037 }, "geometry": { "type": "Point", "coordinates": [ 78.386955, 17.4439748 ] } },
{ "type": "Feature", "properties": { "element": "node", "id": 6191414042 }, "geometry": { "type": "Point", "coordinates": [ 78.3870944, 17.4436402 ] } },
{ "type": "Feature", "properties": { "element": "node", "id": 6191762118 }, "geometry": { "type": "Point", "coordinates": [ 78.3876668, 17.4433495 ] } },
{ "type": "Feature", "properties": { "element": "node", "id": 6208338885 }, "geometry": { "type": "Point", "coordinates": [ 78.461108, 17.4026777 ] } },
{ "type": "Feature", "properties": { "element": "node", "id": 6209990986 }, "geometry": { "type": "Point", "coordinates": [ 78.4655285, 17.3964405 ] } },
{ "type": "Feature", "properties": { "element": "node", "id": 6222396188 }, "geometry": { "type": "Point", "coordinates": [ 78.4628869, 17.4002282 ] } },
{ "type": "Feature", "properties": { "element": "node", "id": 6222399985 }, "geometry": { "type": "Point", "coordinates": [ 78.4628961, 17.3994456 ] } },
{ "type": "Feature", "properties": { "element": "node", "id": 6222400185 }, "geometry": { "type": "Point", "coordinates": [ 78.4629116, 17.3995138 ] } },
{ "type": "Feature", "properties": { "element": "node", "id": 6222432292 }, "geometry": { "type": "Point", "coordinates": [ 78.4625941, 17.3965546 ] } },
{ "type": "Feature", "properties": { "element": "node", "id": 6222437288 }, "geometry": { "type": "Point", "coordinates": [ 78.462798, 17.3972626 ] } },
{ "type": "Feature", "properties": { "element": "node", "id": 6244371388 }, "geometry": { "type": "Point", "coordinates": [ 78.46205, 17.4089819 ] } },
{ "type": "Feature", "properties": { "element": "node", "id": 6244580285 }, "geometry": { "type": "Point", "coordinates": [ 78.4618126, 17.4086575 ] } },
{ "type": "Feature", "properties": { "element": "node", "id": 6248961889 }, "geometry": { "type": "Point", "coordinates": [ 78.389642, 17.4849692 ] } },
{ "type": "Feature", "properties": { "element": "node", "id": 6249182887 }, "geometry": { "type": "Point", "coordinates": [ 78.3883437, 17.4863782 ] } },
{ "type": "Feature", "properties": { "element": "node", "id": 6252082585 }, "geometry": { "type": "Point", "coordinates": [ 78.4536957, 17.4010781 ] } },
{ "type": "Feature", "properties": { "element": "node", "id": 6253709485 }, "geometry": { "type": "Point", "coordinates": [ 78.4184878, 17.3743759 ] } },
{ "type": "Feature", "properties": { "element": "node", "id": 6255304085 }, "geometry": { "type": "Point", "coordinates": [ 78.3895457, 17.4851323 ] } },
{ "type": "Feature", "properties": { "element": "node", "id": 6255318385 }, "geometry": { "type": "Point", "coordinates": [ 78.4023855, 17.4938967 ] } },
{ "type": "Feature", "properties": { "element": "node", "id": 6263600286 }, "geometry": { "type": "Point", "coordinates": [ 78.5566455, 17.4072325 ] } },
{ "type": "Feature", "properties": { "element": "node", "id": 6263697387 }, "geometry": { "type": "Point", "coordinates": [ 78.5556682, 17.4062013 ] } },
{ "type": "Feature", "properties": { "element": "node", "id": 6273900186 }, "geometry": { "type": "Point", "coordinates": [ 78.3984611, 17.4943885 ] } },
{ "type": "Feature", "properties": { "element": "node", "id": 6295712746 }, "geometry": { "type": "Point", "coordinates": [ 78.3377423, 17.5118927 ] } },
{ "type": "Feature", "properties": { "element": "node", "id": 6308262613 }, "geometry": { "type": "Point", "coordinates": [ 78.4927715, 17.408247 ] } },
{ "type": "Feature", "properties": { "element": "node", "id": 6308262618 }, "geometry": { "type": "Point", "coordinates": [ 78.4923966, 17.4102126 ] } },
{ "type": "Feature", "properties": { "element": "node", "id": 6308262623 }, "geometry": { "type": "Point", "coordinates": [ 78.4905432, 17.4111608 ] } },
{ "type": "Feature", "properties": { "element": "node", "id": 6308262631 }, "geometry": { "type": "Point", "coordinates": [ 78.4921539, 17.4114001 ] } },
{ "type": "Feature", "properties": { "element": "node", "id": 6399883667 }, "geometry": { "type": "Point", "coordinates": [ 78.4641656, 17.3912759 ] } },
{ "type": "Feature", "properties": { "element": "node", "id": 6399883668 }, "geometry": { "type": "Point", "coordinates": [ 78.464094, 17.3911816 ] } },
{ "type": "Feature", "properties": { "element": "node", "id": 6399883669 }, "geometry": { "type": "Point", "coordinates": [ 78.4638661, 17.3913197 ] } },
{ "type": "Feature", "properties": { "element": "node", "id": 6451226171 }, "geometry": { "type": "Point", "coordinates": [ 78.3315513, 17.492211 ] } },
{ "type": "Feature", "properties": { "element": "node", "id": 6575821831 }, "geometry": { "type": "Point", "coordinates": [ 78.5660149, 17.4177008 ] } },
{ "type": "Feature", "properties": { "element": "node", "id": 6581371231 }, "geometry": { "type": "Point", "coordinates": [ 78.5646375, 17.420185 ] } },
{ "type": "Feature", "properties": { "element": "node", "id": 6765614685 }, "geometry": { "type": "Point", "coordinates": [ 78.5176454, 17.4275859 ] } },
{ "type": "Feature", "properties": { "element": "node", "id": 6773025656 }, "geometry": { "type": "Point", "coordinates": [ 78.5138005, 17.4232199 ] } },
{ "type": "Feature", "properties": { "element": "node", "id": 6773025661 }, "geometry": { "type": "Point", "coordinates": [ 78.515862, 17.4244858 ] } },
{ "type": "Feature", "properties": { "element": "node", "id": 6822126490 }, "geometry": { "type": "Point", "coordinates": [ 78.452513, 17.495606 ] } },
{ "type": "Feature", "properties": { "element": "node", "id": 6822126521 }, "geometry": { "type": "Point", "coordinates": [ 78.326194, 17.427342 ] } },
{ "type": "Feature", "properties": { "element": "node", "id": 6822126524 }, "geometry": { "type": "Point", "coordinates": [ 78.439089, 17.44175 ] } },
{ "type": "Feature", "properties": { "element": "node", "id": 6822126545 }, "geometry": { "type": "Point", "coordinates": [ 78.4363377, 17.5397983 ] } },
{ "type": "Feature", "properties": { "element": "node", "id": 6822126561 }, "geometry": { "type": "Point", "coordinates": [ 78.3481324, 17.4919985 ] } },
{ "type": "Feature", "properties": { "element": "node", "id": 6822126587 }, "geometry": { "type": "Point", "coordinates": [ 78.430343, 17.3226562 ] } },
{ "type": "Feature", "properties": { "element": "node", "id": 6822126602 }, "geometry": { "type": "Point", "coordinates": [ 78.4236913, 17.4698059 ] } },
{ "type": "Feature", "properties": { "element": "node", "id": 6822126604 }, "geometry": { "type": "Point", "coordinates": [ 78.43375, 17.539086 ] } },
{ "type": "Feature", "properties": { "element": "node", "id": 6822126643 }, "geometry": { "type": "Point", "coordinates": [ 78.397885, 17.493271 ] } },
{ "type": "Feature", "properties": { "element": "node", "id": 6822126652 }, "geometry": { "type": "Point", "coordinates": [ 78.4391833, 17.4409421 ] } },
{ "type": "Feature", "properties": { "element": "node", "id": 6847914718 }, "geometry": { "type": "Point", "coordinates": [ 78.4370787, 17.4389799 ] } },
{ "type": "Feature", "properties": { "element": "node", "id": 6850830272 }, "geometry": { "type": "Point", "coordinates": [ 78.4380492, 17.4406365 ] } },
{ "type": "Feature", "properties": { "element": "node", "id": 6853049501 }, "geometry": { "type": "Point", "coordinates": [ 78.422626, 17.46941 ] } },
{ "type": "Feature", "properties": { "element": "node", "id": 6935221548 }, "geometry": { "type": "Point", "coordinates": [ 78.4786941, 17.4821708 ] } },
{ "type": "Feature", "properties": { "element": "node", "id": 6935569216 }, "geometry": { "type": "Point", "coordinates": [ 78.4806445, 17.4822713 ] } },
{ "type": "Feature", "properties": { "element": "node", "id": 7008010798 }, "geometry": { "type": "Point", "coordinates": [ 78.3401688, 17.4971105 ] } },
{ "type": "Feature", "properties": { "element": "node", "id": 7021286970 }, "geometry": { "type": "Point", "coordinates": [ 78.386775, 17.4441819 ] } },
{ "type": "Feature", "properties": { "element": "node", "id": 7021303751 }, "geometry": { "type": "Point", "coordinates": [ 78.387339, 17.4429843 ] } },
{ "type": "Feature", "properties": { "element": "node", "id": 7025820761 }, "geometry": { "type": "Point", "coordinates": [ 78.3950098, 17.4403669 ] } },
{ "type": "Feature", "properties": { "element": "node", "id": 7025820829 }, "geometry": { "type": "Point", "coordinates": [ 78.3905092, 17.4478808 ] } },
{ "type": "Feature", "properties": { "element": "node", "id": 7025820892 }, "geometry": { "type": "Point", "coordinates": [ 78.3912398, 17.4413009 ] } },
{ "type": "Feature", "properties": { "element": "node", "id": 7062983765 }, "geometry": { "type": "Point", "coordinates": [ 78.3549405, 17.5063443 ] } },
{ "type": "Feature", "properties": { "element": "node", "id": 7063003814 }, "geometry": { "type": "Point", "coordinates": [ 78.3563189, 17.5055332 ] } },
{ "type": "Feature", "properties": { "element": "node", "id": 7113869985 }, "geometry": { "type": "Point", "coordinates": [ 78.5092146, 17.3624281 ] } },
{ "type": "Feature", "properties": { "element": "node", "id": 7113870385 }, "geometry": { "type": "Point", "coordinates": [ 78.5087698, 17.3636564 ] } },
{ "type": "Feature", "properties": { "element": "node", "id": 7114512486 }, "geometry": { "type": "Point", "coordinates": [ 78.4471777, 17.4402997 ] } },
{ "type": "Feature", "properties": { "element": "node", "id": 7243980109 }, "geometry": { "type": "Point", "coordinates": [ 78.3598439, 17.4409549 ] } },
{ "type": "Feature", "properties": { "element": "node", "id": 7244168658 }, "geometry": { "type": "Point", "coordinates": [ 78.4188024, 17.501953 ] } },
{ "type": "Feature", "properties": { "element": "node", "id": 7244271146 }, "geometry": { "type": "Point", "coordinates": [ 78.3588228, 17.4941356 ] } },
{ "type": "Feature", "properties": { "element": "node", "id": 7244280447 }, "geometry": { "type": "Point", "coordinates": [ 78.4394827, 17.4420776 ] } },
{ "type": "Feature", "properties": { "element": "node", "id": 7244487805 }, "geometry": { "type": "Point", "coordinates": [ 78.4402258, 17.3943751 ] } },
{ "type": "Feature", "properties": { "element": "node", "id": 7244487806 }, "geometry": { "type": "Point", "coordinates": [ 78.4393173, 17.3944463 ] } },
{ "type": "Feature", "properties": { "element": "node", "id": 7246491291 }, "geometry": { "type": "Point", "coordinates": [ 78.3664559, 17.4625091 ] } },
{ "type": "Feature", "properties": { "element": "node", "id": 7246495611 }, "geometry": { "type": "Point", "coordinates": [ 78.4186474, 17.5231314 ] } },
{ "type": "Feature", "properties": { "element": "node", "id": 7246516887 }, "geometry": { "type": "Point", "coordinates": [ 78.4159707, 17.4996381 ] } },
{ "type": "Feature", "properties": { "element": "node", "id": 7246564079 }, "geometry": { "type": "Point", "coordinates": [ 78.5475616, 17.3474309 ] } },
{ "type": "Feature", "properties": { "element": "node", "id": 7386371985 }, "geometry": { "type": "Point", "coordinates": [ 78.442528, 17.516822 ] } },
{ "type": "Feature", "properties": { "element": "node", "id": 7608585725 }, "geometry": { "type": "Point", "coordinates": [ 78.4989416, 17.4387545 ] } },
{ "type": "Feature", "properties": { "element": "node", "id": 7698850605 }, "geometry": { "type": "Point", "coordinates": [ 78.4455082, 17.4415512 ] } },
{ "type": "Feature", "properties": { "element": "node", "id": 7860508776 }, "geometry": { "type": "Point", "coordinates": [ 78.3573789, 17.4979489 ] } },
{ "type": "Feature", "properties": { "element": "node", "id": 7863571046 }, "geometry": { "type": "Point", "coordinates": [ 78.3593012, 17.496975 ] } },
{ "type": "Feature", "properties": { "element": "node", "id": 7925063685 }, "geometry": { "type": "Point", "coordinates": [ 78.441857, 17.516978 ] } },
{ "type": "Feature", "properties": { "element": "node", "id": 8110903449 }, "geometry": { "type": "Point", "coordinates": [ 78.5260624, 17.3644493 ] } },
{ "type": "Feature", "properties": { "element": "node", "id": 8110903450 }, "geometry": { "type": "Point", "coordinates": [ 78.526155, 17.3642386 ] } },
{ "type": "Feature", "properties": { "element": "node", "id": 8111077945 }, "geometry": { "type": "Point", "coordinates": [ 78.5519724, 17.4294537 ] } },
{ "type": "Feature", "properties": { "element": "node", "id": 8113850345 }, "geometry": { "type": "Point", "coordinates": [ 78.5697782, 17.4084509 ] } },
{ "type": "Feature", "properties": { "element": "node", "id": 8113850346 }, "geometry": { "type": "Point", "coordinates": [ 78.5698759, 17.4081942 ] } },
{ "type": "Feature", "properties": { "element": "node", "id": 8193147567 }, "geometry": { "type": "Point", "coordinates": [ 78.3965734, 17.5218445 ] } },
{ "type": "Feature", "properties": { "element": "node", "id": 8233040767 }, "geometry": { "type": "Point", "coordinates": [ 78.5564959, 17.4075739 ] } },
{ "type": "Feature", "properties": { "element": "node", "id": 8386201170 }, "geometry": { "type": "Point", "coordinates": [ 78.5303894, 17.3619731 ] } },
{ "type": "Feature", "properties": { "element": "node", "id": 8386506462 }, "geometry": { "type": "Point", "coordinates": [ 78.3621528, 17.5055606 ] } },
{ "type": "Feature", "properties": { "element": "node", "id": 8386705331 }, "geometry": { "type": "Point", "coordinates": [ 78.3317723, 17.4921664 ] } },
{ "type": "Feature", "properties": { "element": "node", "id": 8386722694 }, "geometry": { "type": "Point", "coordinates": [ 78.4645568, 17.4955697 ] } },
{ "type": "Feature", "properties": { "element": "node", "id": 8386722695 }, "geometry": { "type": "Point", "coordinates": [ 78.4647538, 17.4954008 ] } },
{ "type": "Feature", "properties": { "element": "node", "id": 8386742636 }, "geometry": { "type": "Point", "coordinates": [ 78.3889979, 17.4749421 ] } },
{ "type": "Feature", "properties": { "element": "node", "id": 8891813164 }, "geometry": { "type": "Point", "coordinates": [ 78.4329873, 17.4258118 ] } },
{ "type": "Feature", "properties": { "element": "node", "id": 8892679280 }, "geometry": { "type": "Point", "coordinates": [ 78.4230145, 17.4519282 ] } },
{ "type": "Feature", "properties": { "element": "node", "id": 8892679282 }, "geometry": { "type": "Point", "coordinates": [ 78.4232995, 17.4532419 ] } },
{ "type": "Feature", "properties": { "element": "node", "id": 8892679283 }, "geometry": { "type": "Point", "coordinates": [ 78.4235641, 17.4545692 ] } },
{ "type": "Feature", "properties": { "element": "node", "id": 8909248541 }, "geometry": { "type": "Point", "coordinates": [ 78.4327178, 17.44846 ] } },
{ "type": "Feature", "properties": { "element": "node", "id": 9885108806 }, "geometry": { "type": "Point", "coordinates": [ 78.4736855, 17.3565667 ] } },
{ "type": "Feature", "properties": { "element": "node", "id": 9885114662 }, "geometry": { "type": "Point", "coordinates": [ 78.4740491, 17.3479048 ] } },
{ "type": "Feature", "properties": { "element": "node", "id": 9903874813 }, "geometry": { "type": "Point", "coordinates": [ 78.4348089, 17.44089 ] } },
{ "type": "Feature", "properties": { "element": "node", "id": 9913821063 }, "geometry": { "type": "Point", "coordinates": [ 78.4373588, 17.3787846 ] } },
{ "type": "Feature", "properties": { "element": "node", "id": 10244211029 }, "geometry": { "type": "Point", "coordinates": [ 78.5475008, 17.4235148 ] } },
{ "type": "Feature", "properties": { "element": "node", "id": 10277935129 }, "geometry": { "type": "Point", "coordinates": [ 78.5273374, 17.3677425 ] } },
{ "type": "Feature", "properties": { "element": "node", "id": 10279842274 }, "geometry": { "type": "Point", "coordinates": [ 78.4542857, 17.4239877 ] } },
{ "type": "Feature", "properties": { "element": "node", "id": 10279842275 }, "geometry": { "type": "Point", "coordinates": [ 78.4542871, 17.4238251 ] } },
{ "type": "Feature", "properties": { "element": "node", "id": 10279842276 }, "geometry": { "type": "Point", "coordinates": [ 78.4543324, 17.4237644 ] } },
{ "type": "Feature", "properties": { "element": "node", "id": 10279859229 }, "geometry": { "type": "Point", "coordinates": [ 78.5691133, 17.3308781 ] } },
{ "type": "Feature", "properties": { "element": "node", "id": 10279859231 }, "geometry": { "type": "Point", "coordinates": [ 78.569082, 17.3307768 ] } },
{ "type": "Feature", "properties": { "element": "node", "id": 11015905458 }, "geometry": { "type": "Point", "coordinates": [ 78.4568762, 17.4253638 ] } },
{ "type": "Feature", "properties": { "element": "node", "id": 11690766694 }, "geometry": { "type": "Point", "coordinates": [ 78.5508008, 17.4737001 ] } },
{ "type": "Feature", "properties": { "element": "node", "id": 11690850945 }, "geometry": { "type": "Point", "coordinates": [ 78.5510183, 17.4739603 ] } },
{ "type": "Feature", "properties": { "element": "node", "id": 11690910158 }, "geometry": { "type": "Point", "coordinates": [ 78.5512742, 17.4746371 ] } },
{ "type": "Feature", "properties": { "element": "node", "id": 11691045768 }, "geometry": { "type": "Point", "coordinates": [ 78.5507604, 17.4732489 ] } },
{ "type": "Feature", "properties": { "element": "node", "id": 11736236191 }, "geometry": { "type": "Point", "coordinates": [ 78.3937554, 17.5024987 ] } },
{ "type": "Feature", "properties": { "element": "node", "id": 11770988845 }, "geometry": { "type": "Point", "coordinates": [ 78.4095046, 17.4288809 ] } },
{ "type": "Feature", "properties": { "element": "node", "id": 12410904324 }, "geometry": { "type": "Point", "coordinates": [ 78.4064938, 17.5113426 ] } },
{ "type": "Feature", "properties": { "element": "node", "id": 12410904329 }, "geometry": { "type": "Point", "coordinates": [ 78.4065406, 17.5111748 ] } },
{ "type": "Feature", "properties": { "element": "node", "id": 12462528092 }, "geometry": { "type": "Point", "coordinates": [ 78.509635, 17.3939356 ] } },
{ "type": "Feature", "properties": { "element": "node", "id": 12854654626 }, "geometry": { "type": "Point", "coordinates": [ 78.4286396, 17.506851 ] } },
{ "type": "Feature", "properties": { "element": "node", "id": 13131351839 }, "geometry": { "type": "Point", "coordinates": [ 78.5650502, 17.3510464 ] } },
{ "type": "Feature", "properties": { "element": "node", "id": 13208186045 }, "geometry": { "type": "Point", "coordinates": [ 78.4548004, 17.4229037 ] } },
{ "type": "Feature", "properties": { "element": "node", "id": 13285248847 }, "geometry": { "type": "Point", "coordinates": [ 78.3608508, 17.4486131 ] } },
{ "type": "Feature", "properties": { "element": "node", "id": 13285248849 }, "geometry": { "type": "Point", "coordinates": [ 78.3610651, 17.4485611 ] } },
{ "type": "Feature", "properties": { "element": "node", "id": 13295366152 }, "geometry": { "type": "Point", "coordinates": [ 78.4445129, 17.4358471 ] } },
{ "type": "Feature", "properties": { "element": "node", "id": 13335606935 }, "geometry": { "type": "Point", "coordinates": [ 78.4517913, 17.4940402 ] } },
{ "type": "Feature", "properties": { "element": "node", "id": 13335606971 }, "geometry": { "type": "Point", "coordinates": [ 78.4517467, 17.4938765 ] } },
{ "type": "Feature", "properties": { "element": "way", "id": 265631698 }, "geometry": { "type": "Point", "coordinates": [ 78.489669827580684, 17.413109353431246 ] } },
{ "type": "Feature", "properties": { "element": "way", "id": 357359274 }, "geometry": { "type": "Point", "coordinates": [ 78.530183994675383, 17.390024127627107 ] } },
{ "type": "Feature", "properties": { "element": "way", "id": 357414074 }, "geometry": { "type": "Point", "coordinates": [ 78.5667554, 17.4011226 ] } },
{ "type": "Feature", "properties": { "element": "way", "id": 357414395 }, "geometry": { "type": "Point", "coordinates": [ 78.565657911178263, 17.401254624097707 ] } },
{ "type": "Feature", "properties": { "element": "way", "id": 413585727 }, "geometry": { "type": "Point", "coordinates": [ 78.48891905, 17.43640005 ] } },
{ "type": "Feature", "properties": { "element": "way", "id": 776426339 }, "geometry": { "type": "Point", "coordinates": [ 78.526944911756459, 17.370748031015342 ] } },
{ "type": "Feature", "properties": { "element": "way", "id": 776655515 }, "geometry": { "type": "Point", "coordinates": [ 78.547560456295571, 17.347435463094147 ] } },
{ "type": "Feature", "properties": { "element": "way", "id": 1082939673 }, "geometry": { "type": "Point", "coordinates": [ 78.48345296559593, 17.475982959139774 ] } },
{ "type": "Feature", "properties": { "element": "way", "id": 1411692864 }, "geometry": { "type": "Point", "coordinates": [ 78.354464190613655, 17.496716163711707 ] } }
]
}
