{
"type": "FeatureCollection",
"name": "playgrounds",
"crs": { "type": "name", "properties": { "name": "urn:ogc:def:crs:OGC:1.3:CRS84" } },
"features": [
{ "type": "Feature", "properties": { "element": "node", "id": 1347504903 }, "geometry": { "type": "Point", "coordinates": [ 78.3623257, 17.4891585 ] } },
{ "type": "Feature", "properties": { "element": "node", "id": 4187311994 }, "geometry": { "type": "Point", "coordinates": [ 78.4688864, 17.379269 ] } },
{ "type": "Feature", "properties": { "element": "node", "id": 5682131521 }, "geometry": { "type": "Point", "coordinates": [ 78.475456, 17.5082231 ] } },
{ "type": "Feature", "properties": { "element": "node", "id": 6372204025 }, "geometry": { "type": "Point", "coordinates": [ 78.5073217, 17.3458697 ] } },
{ "type": "Feature", "properties": { "element": "node", "id": 6435595867 }, "geometry": { "type": "Point", "coordinates": [ 78.4525442, 17.4989602 ] } },
{ "type": "Feature", "properties": { "element": "node", "id": 6652948485 }, "geometry": { "type": "Point", "coordinates": [ 78.3238691, 17.4878693 ] } },
{ "type": "Feature", "properties": { "element": "node", "id": 7008099222 }, "geometry": { "type": "Point", "coordinates": [ 78.6081258, 17.3396025 ] } },
{ "type": "Feature", "properties": { "element": "node", "id": 7088200303 }, "geometry": { "type": "Point", "coordinates": [ 78.4584753, 17.4476829 ] } },
{ "type": "Feature", "properties": { "element": "node", "id": 7088862152 }, "geometry": { "type": "Point", "coordinates": [ 78.4267395, 17.3297707 ] } },
{ "type": "Feature", "properties": { "element": "node", "id": 7244174303 }, "geometry": { "type": "Point", "coordinates": [ 78.5075437, 17.4136548 ] } },
{ "type": "Feature", "properties": { "element": "node", "id": 7244264269 }, "geometry": { "type": "Point", "coordinates": [ 78.4882879, 17.4040662 ] } },
{ "type": "Feature", "properties": { "element": "node", "id": 7246568059 }, "geometry": { "type": "Point", "coordinates": [ 78.5468043, 17.3459236 ] } },
{ "type": "Feature", "properties": { "element": "node", "id": 7247133513 }, "geometry": { "type": "Point", "coordinates": [ 78.452075, 17.4710685 ] } },
{ "type": "Feature", "properties": { "element": "node", "id": 7375436998 }, "geometry": { "type": "Point", "coordinates": [ 78.5229481, 17.3891939 ] } },
{ "type": "Feature", "properties": { "element": "node", "id": 8058819828 }, "geometry": { "type": "Point", "coordinates": [ 78.5047549, 17.3647482 ] } },
{ "type": "Feature", "properties": { "element": "node", "id": 8111032130 }, "geometry": { "type": "Point", "coordinates": [ 78.5066586, 17.4172549 ] } },
{ "type": "Feature", "properties": { "element": "node", "id": 8909248554 }, "geometry": { "type": "Point", "coordinates": [ 78.4267516, 17.4477505 ] } },
{ "type": "Feature", "properties": { "element": "node", "id": 9627168422 }, "geometry": { "type": "Point", "coordinates": [ 78.5193948, 17.3896734 ] } },
{ "type": "Feature", "properties": { "element": "node", "id": 9885094719 }, "geometry": { "type": "Point", "coordinates": [ 78.4632439, 17.5150681 ] } },
{ "type": "Feature", "properties": { "element": "node", "id": 9903874810 }, "geometry": { "type": "Point", "coordinates": [ 78.4255386, 17.4345267 ] } },
{ "type": "Feature", "properties": { "element": "node", "id": 9918570030 }, "geometry": { "type": "Point", "coordinates": [ 78.4518934, 17.4849681 ] } },
{ "type": "Feature", "properties": { "element": "node", "id": 10171040894 }, "geometry": { "type": "Point", "coordinates": [ 78.4990117, 17.3355504 ] } },
{ "type": "Feature", "properties": { "element": "node", "id": 10171040906 }, "geometry": { "type": "Point", "coordinates": [ 78.5461171, 17.3388176 ] } },
{ "type": "Feature", "properties": { "element": "node", "id": 10171328239 }, "geometry": { "type": "Point", "coordinates": [ 78.4946803, 17.3726485 ] } },
{ "type": "Feature", "properties": { "element": "node", "id": 10692574359 }, "geometry": { "type": "Point", "coordinates": [ 78.5174847, 17.3598971 ] } },
{ "type": "Feature", "properties": { "element": "node", "id": 10806707284 }, "geometry": { "type": "Point", "coordinates": [ 78.3892897, 17.4926218 ] } },
{ "type": "Feature", "properties": { "element": "node", "id": 10959111311 }, "geometry": { "type": "Point", "coordinates": [ 78.5719088, 17.4433471 ] } },
{ "type": "Feature", "properties": { "element": "node", "id": 10960705268 }, "geometry": { "type": "Point", "coordinates": [ 78.572889, 17.4407553 ] } },
{ "type": "Feature", "properties": { "element": "node", "id": 11082369494 }, "geometry": { "type": "Point", "coordinates": [ 78.5170534, 17.390014 ] } },
{ "type": "Feature", "properties": { "element": "node", "id": 11489438720 }, "geometry": { "type": "Point", "coordinates": [ 78.5278875, 17.3838788 ] } },
{ "type": "Feature", "properties": { "element": "node", "id": 11489738605 }, "geometry": { "type": "Point", "coordinates": [ 78.5212713, 17.3890446 ] } },
{ "type": "Feature", "properties": { "element": "node", "id": 12256783599 }, "geometry": { "type": "Point", "coordinates": [ 78.537168, 17.4241536 ] } },
{ "type": "Feature", "properties": { "element": "node", "id": 12596383237 }, "geometry": { "type": "Point", "coordinates": [ 78.385387, 17.4859298 ] } },
{ "type": "Feature", "properties": { "element": "node", "id": 12848072893 }, "geometry": { "type": "Point", "coordinates": [ 78.5271605, 17.3806149 ] } },
{ "type": "Feature", "properties": { "element": "node", "id": 13272705344 }, "geometry": { "type": "Point", "coordinates": [ 78.3693654, 17.4604615 ] } },
{ "type": "Feature", "properties": { "element": "node", "id": 13273738340 }, "geometry": { "type": "Point", "coordinates": [ 78.3600707, 17.4553702 ] } },
{ "type": "Feature", "properties": { "element": "way", "id": 29252606 }, "geometry": { "type": "Point", "coordinates": [ 78.506784700000011, 17.443196433333334 ] } },
{ "type": "Feature", "properties": { "element": "way", "id": 31405472 }, "geometry": { "type": "Point", "coordinates": [ 78.443585763192871, 17.441500683577669 ] } },
{ "type": "Feature", "properties": { "element": "way", "id": 42988862 }, "geometry": { "type": "Point", "coordinates": [ 78.450852205168957, 17.437887762057137 ] } },
{ "type": "Feature", "properties": { "element": "way", "id": 116039138 }, "geometry": { "type": "Point", "coordinates": [ 78.464440246008181, 17.396818824874835 ] } },
{ "type": "Feature", "properties": { "element": "way", "id": 121543585 }, "geometry": { "type": "Point", "coordinates": [ 78.5473105294503, 17.418081142714957 ] } },
{ "type": "Feature", "properties": { "element": "way", "id": 187918699 }, "geometry": { "type": "Point", "coordinates": [ 78.356749983950081, 17.438379659870957 ] } },
{ "type": "Feature", "properties": { "element": "way", "id": 188020953 }, "geometry": { "type": "Point", "coordinates": [ 78.357434571697155, 17.441310064761861 ] } },
{ "type": "Feature", "properties": { "element": "way", "id": 238170925 }, "geometry": { "type": "Point", "coordinates": [ 78.496084233535669, 17.417135747994813 ] } },
{ "type": "Feature", "properties": { "element": "way", "id": 247171536 }, "geometry": { "type": "Point", "coordinates": [ 78.400528380146781, 17.314594643160618 ] } },
{ "type": "Feature", "properties": { "element": "way", "id": 274911855 }, "geometry": { "type": "Point", "coordinates": [ 78.407278610918709, 17.306965801998665 ] } },
{ "type": "Feature", "properties": { "element": "way", "id": 297191640 }, "geometry": { "type": "Point", "coordinates": [ 78.353040100964961, 17.507912838566252 ] } },
{ "type": "Feature", "properties": { "element": "way", "id": 302007525 }, "geometry": { "type": "Point", "coordinates": [ 78.485185677788166, 17.405563025915736 ] } },
{ "type": "Feature", "properties": { "element": "way", "id": 339798431 }, "geometry": { "type": "Point", "coordinates": [ 78.302446033215034, 17.48447183357268 ] } },
{ "type": "Feature", "properties": { "element": "way", "id": 340817928 }, "geometry": { "type": "Point", "coordinates": [ 78.383066121636091, 17.446616289124474 ] } },
{ "type": "Feature", "properties": { "element": "way", "id": 340817930 }, "geometry": { "type": "Point", "coordinates": [ 78.381507593455069, 17.446985079172304 ] } },
{ "type": "Feature", "properties": { "element": "way", "id": 340891352 }, "geometry": { "type": "Point", "coordinates": [ 78.38869035335938, 17.488304131740492 ] } },
{ "type": "Feature", "properties": { "element": "way", "id": 340894240 }, "geometry": { "type": "Point", "coordinates": [ 78.396250228191334, 17.485476039662995 ] } },
{ "type": "Feature", "properties": { "element": "way", "id": 341472949 }, "geometry": { "type": "Point", "coordinates": [ 78.287963892382706, 17.503207674818793 ] } },
{ "type": "Feature", "properties": { "element": "way", "id": 341475220 }, "geometry": { "type": "Point", "coordinates": [ 78.290681475568036, 17.503308036521638 ] } },
{ "type": "Feature", "properties": { "element": "way", "id": 342664944 }, "geometry": { "type": "Point", "coordinates": [ 78.364999650000016, 17.4195126 ] } },
{ "type": "Feature", "properties": { "element": "way", "id": 343903339 }, "geometry": { "type": "Point", "coordinates": [ 78.508215890725353, 17.447700436839241 ] } },
{ "type": "Feature", "properties": { "element": "way", "id": 356199389 }, "geometry": { "type": "Point", "coordinates": [ 78.360537957761878, 17.428281781039772 ] } },
{ "type": "Feature", "properties": { "element": "way", "id": 362532422 }, "geometry": { "type": "Point", "coordinates": [ 78.530010281901212, 17.486523031742234 ] } },
{ "type": "Feature", "properties": { "element": "way", "id": 362532429 }, "geometry": { "type": "Point", "coordinates": [ 78.565606473311931, 17.475209223732531 ] } },
{ "type": "Feature", "properties": { "element": "way", "id": 362955641 }, "geometry": { "type": "Point", "coordinates": [ 78.36388762403233, 17.420144711309138 ] } },
{ "type": "Feature", "properties": { "element": "way", "id": 375909159 }, "geometry": { "type": "Point", "coordinates": [ 78.389306679529739, 17.492546941466056 ] } },
{ "type": "Feature", "properties": { "element": "way", "id": 437412060 }, "geometry": { "type": "Point", "coordinates": [ 78.410885713351178, 17.418418815265721 ] } },
{ "type": "Feature", "properties": { "element": "way", "id": 437412061 }, "geometry": { "type": "Point", "coordinates": [ 78.409367061965838, 17.419350191361236 ] } },
{ "type": "Feature", "properties": { "element": "way", "id": 463088208 }, "geometry": { "type": "Point", "coordinates": [ 78.441150703899268, 17.326543503765791 ] } },
{ "type": "Feature", "properties": { "element": "way", "id": 680466545 }, "geometry": { "type": "Point", "coordinates": [ 78.3968814, 17.49394895 ] } },
{ "type": "Feature", "properties": { "element": "way", "id": 680562976 }, "geometry": { "type": "Point", "coordinates": [ 78.543421181170487, 17.37107930403231 ] } },
{ "type": "Feature", "properties": { "element": "way", "id": 701033132 }, "geometry": { "type": "Point", "coordinates": [ 78.412659315415894, 17.442816924124937 ] } },
{ "type": "Feature", "properties": { "element": "way", "id": 737513252 }, "geometry": { "type": "Point", "coordinates": [ 78.46542176333061, 17.383813062457726 ] } },
{ "type": "Feature", "properties": { "element": "way", "id": 737535031 }, "geometry": { "type": "Point", "coordinates": [ 78.49026423470923, 17.396979172980888 ] } },
{ "type": "Feature", "properties": { "element": "way", "id": 740701163 }, "geometry": { "type": "Point", "coordinates": [ 78.538632165336011, 17.394114826672187 ] } },
{ "type": "Feature", "properties": { "element": "way", "id": 740791127 }, "geometry": { "type": "Point", "coordinates": [ 78.42892505, 17.4357861 ] } },
{ "type": "Feature", "properties": { "element": "way", "id": 740999911 }, "geometry": { "type": "Point", "coordinates": [ 78.56464795427766, 17.319750034284777 ] } },
{ "type": "Feature", "properties": { "element": "way", "id": 749409439 }, "geometry": { "type": "Point", "coordinates": [ 78.608091414244967, 17.339600053089132 ] } },
{ "type": "Feature", "properties": { "element": "way", "id": 749515769 }, "geometry": { "type": "Point", "coordinates": [ 78.391330178266003, 17.449629603796375 ] } },
{ "type": "Feature", "properties": { "element": "way", "id": 776409430 }, "geometry": { "type": "Point", "coordinates": [ 78.526342503495002, 17.366309859218585 ] } },
{ "type": "Feature", "properties": { "element": "way", "id": 776658629 }, "geometry": { "type": "Point", "coordinates": [ 78.546796584212785, 17.345904734005099 ] } },
{ "type": "Feature", "properties": { "element": "way", "id": 827605897 }, "geometry": { "type": "Point", "coordinates": [ 78.532435574209842, 17.353018538013171 ] } },
{ "type": "Feature", "properties": { "element": "way", "id": 852385932 }, "geometry": { "type": "Point", "coordinates": [ 78.361971839358603, 17.449019107062732 ] } },
{ "type": "Feature", "properties": { "element": "way", "id": 859688601 }, "geometry": { "type": "Point", "coordinates": [ 78.456197633732032, 17.447902664289995 ] } },
{ "type": "Feature", "properties": { "element": "way", "id": 872825459 }, "geometry": { "type": "Point", "coordinates": [ 78.397137133519863, 17.522904616862526 ] } },
{ "type": "Feature", "properties": { "element": "way", "id": 878100582 }, "geometry": { "type": "Point", "coordinates": [ 78.3461918, 17.516402 ] } },
{ "type": "Feature", "properties": { "element": "way", "id": 879138501 }, "geometry": { "type": "Point", "coordinates": [ 78.328699815040068, 17.47515774682995 ] } },
{ "type": "Feature", "properties": { "element": "way", "id": 879139132 }, "geometry": { "type": "Point", "coordinates": [ 78.332296597852988, 17.47278899056457 ] } },
{ "type": "Feature", "properties": { "element": "way", "id": 880081854 }, "geometry": { "type": "Point", "coordinates": [ 78.4166298, 17.49495445 ] } },
{ "type": "Feature", "properties": { "element": "way", "id": 880084296 }, "geometry": { "type": "Point", "coordinates": [ 78.35397475, 17.4976354 ] } },
{ "type": "Feature", "properties": { "element": "way", "id": 880090853 }, "geometry": { "type": "Point", "coordinates": [ 78.415475324822381, 17.502561755250266 ] } },
{ "type": "Feature", "properties": { "element": "way", "id": 880097275 }, "geometry": { "type": "Point", "coordinates": [ 78.3475685, 17.4954142 ] } },
{ "type": "Feature", "properties": { "element": "way", "id": 883215529 }, "geometry": { "type": "Point", "coordinates": [ 78.366788673913874, 17.494118308943797 ] } },
{ "type": "Feature", "properties": { "element": "way", "id": 884647800 }, "geometry": { "type": "Point", "coordinates": [ 78.387580405912743, 17.503442660746877 ] } },
{ "type": "Feature", "properties": { "element": "way", "id": 884677041 }, "geometry": { "type": "Point", "coordinates": [ 78.349595099242677, 17.512742733532868 ] } },
{ "type": "Feature", "properties": { "element": "way", "id": 884677212 }, "geometry": { "type": "Point", "coordinates": [ 78.350297267689626, 17.51238760465414 ] } },
{ "type": "Feature", "properties": { "element": "way", "id": 885449288 }, "geometry": { "type": "Point", "coordinates": [ 78.510527919277877, 17.367766038573336 ] } },
{ "type": "Feature", "properties": { "element": "way", "id": 891668366 }, "geometry": { "type": "Point", "coordinates": [ 78.324010602798054, 17.499349235949257 ] } },
{ "type": "Feature", "properties": { "element": "way", "id": 896472885 }, "geometry": { "type": "Point", "coordinates": [ 78.450042554938506, 17.491177868304405 ] } },
{ "type": "Feature", "properties": { "element": "way", "id": 896477611 }, "geometry": { "type": "Point", "coordinates": [ 78.45454563904363, 17.494292141956532 ] } },
{ "type": "Feature", "properties": { "element": "way", "id": 896477612 }, "geometry": { "type": "Point", "coordinates": [ 78.454265310706816, 17.494342087861394 ] } },
{ "type": "Feature", "properties": { "element": "way", "id": 896477614 }, "geometry": { "type": "Point", "coordinates": [ 78.454311413414445, 17.494475628153175 ] } },
{ "type": "Feature", "properties": { "element": "way", "id": 940047407 }, "geometry": { "type": "Point", "coordinates": [ 78.430408748268718, 17.433144867920774 ] } },
{ "type": "Feature", "properties": { "element": "way", "id": 1014032114 }, "geometry": { "type": "Point", "coordinates": [ 78.543637393198779, 17.437136434341856 ] } },
{ "type": "Feature", "properties": { "element": "way", "id": 1044604146 }, "geometry": { "type": "Point", "coordinates": [ 78.4577073, 17.443052166666671 ] } },
{ "type": "Feature", "properties": { "element": "way", "id": 1051807900 }, "geometry": { "type": "Point", "coordinates": [ 78.533657122078353, 17.490294362427029 ] } },
{ "type": "Feature", "properties": { "element": "way", "id": 1070116664 }, "geometry": { "type": "Point", "coordinates": [ 78.548921171531376, 17.466390023414807 ] } },
{ "type": "Feature", "properties": { "element": "way", "id": 1111996721 }, "geometry": { "type": "Point", "coordinates": [ 78.517085827468378, 17.429547176274667 ] } },
{ "type": "Feature", "properties": { "element": "way", "id": 1113297771 }, "geometry": { "type": "Point", "coordinates": [ 78.418069685000034, 17.497467226606194 ] } },
{ "type": "Feature", "properties": { "element": "way", "id": 1113328958 }, "geometry": { "type": "Point", "coordinates": [ 78.408258729217195, 17.423189430296745 ] } },
{ "type": "Feature", "properties": { "element": "way", "id": 1122008701 }, "geometry": { "type": "Point", "coordinates": [ 78.526333664475601, 17.442601289356357 ] } },
{ "type": "Feature", "properties": { "element": "way", "id": 1124074226 }, "geometry": { "type": "Point", "coordinates": [ 78.454698607495374, 17.408088229284214 ] } },
{ "type": "Feature", "properties": { "element": "way", "id": 1124088503 }, "geometry": { "type": "Point", "coordinates": [ 78.508064289292477, 17.379746500896591 ] } },
{ "type": "Feature", "properties": { "element": "way", "id": 1124088504 }, "geometry": { "type": "Point", "coordinates": [ 78.507814421714684, 17.37937063422482 ] } },
{ "type": "Feature", "properties": { "element": "way", "id": 1124088505 }, "geometry": { "type": "Point", "coordinates": [ 78.506312259701417, 17.381002572740748 ] } },
{ "type": "Feature", "properties": { "element": "way", "id": 1124088506 }, "geometry": { "type": "Point", "coordinates": [ 78.506674978906602, 17.38049556649268 ] } },
{ "type": "Feature", "properties": { "element": "way", "id": 1139108628 }, "geometry": { "type": "Point", "coordinates": [ 78.318494072700133, 17.485149505720162 ] } },
{ "type": "Feature", "properties": { "element": "way", "id": 1172957598 }, "geometry": { "type": "Point", "coordinates": [ 78.54256190924481, 17.395129088406932 ] } },
{ "type": "Feature", "properties": { "element": "way", "id": 1199766638 }, "geometry": { "type": "Point", "coordinates": [ 78.384087831371389, 17.45414025784692 ] } },
{ "type": "Feature", "properties": { "element": "way", "id": 1222790036 }, "geometry": { "type": "Point", "coordinates": [ 78.339995515037927, 17.414531907016652 ] } },
{ "type": "Feature", "properties": { "element": "way", "id": 1225570295 }, "geometry": { "type": "Point", "coordinates": [ 78.473828869273348, 17.34262707613231 ] } },
{ "type": "Feature", "properties": { "element": "way", "id": 1225570296 }, "geometry": { "type": "Point", "coordinates": [ 78.470642292797351, 17.336644372383329 ] } },
{ "type": "Feature", "properties": { "element": "way", "id": 1341682528 }, "geometry": { "type": "Point", "coordinates": [ 78.345722030136344, 17.520783773989841 ] } },
{ "type": "Feature", "properties": { "element": "way", "id": 1391583036 }, "geometry": { "type": "Point", "coordinates": [ 78.46913663098087, 17.339103239483162 ] } },
{ "type": "Feature", "properties": { "element": "way", "id": 1418243268 }, "geometry": { "type": "Point", "coordinates": [ 78.280881761853976, 17.450767075379638 ] } },
{ "type": "Feature", "properties": { "element": "way", "id": 1419093038 }, "geometry": { "type": "Point", "coordinates": [ 78.405372724057457, 17.506370547308112 ] } },
{ "type": "Feature", "properties": { "element": "way", "id": 1419428230 }, "geometry": { "type": "Point", "coordinates": [ 78.392903672569787, 17.486311540567183 ] } },
{ "type": "Feature", "properties": { "element": "way", "id": 1419428234 }, "geometry": { "type": "Point", "coordinates": [ 78.393292793027868, 17.476227143902445 ] } },
{ "type": "Feature", "properties": { "element": "way", "id": 1419428243 }, "geometry": { "type": "Point", "coordinates": [ 78.391802650000017, 17.47428165 ] } }
]
}
