{
"type": "FeatureCollection",
"name": "supermarkets",
"crs": { "type": "name", "properties": { "name": "urn:ogc:def:crs:OGC:1.3:CRS84" } },
"features": [
{ "type": "Feature", "properties": { "element": "node", "id": 360195826 }, "geometry": { "type": "Point", "coordinates": [ 78.3481444, 17.4939199 ] } },
{ "type": "Feature", "properties": { "element": "node", "id": 512993702 }, "geometry": { "type": "Point", "coordinates": [ 78.3864204, 17.4341435 ] } },
{ "type": "Feature", "properties": { "element": "node", "id": 513424891 }, "geometry": { "type": "Point", "coordinates": [ 78.4445099, 17.4427877 ] } },
{ "type": "Feature", "properties": { "element": "node", "id": 538425757 }, "geometry": { "type": "Point", "coordinates": [ 78.4484419, 17.4376555 ] } },
{ "type": "Feature", "properties": { "element": "node", "id": 538425758 }, "geometry": { "type": "Point", "coordinates": [ 78.4481174, 17.4385109 ] } },
{ "type": "Feature", "properties": { "element": "node", "id": 626910659 }, "geometry": { "type": "Point", "coordinates": [ 78.4757391, 17.3684762 ] } },
{ "type": "Feature", "properties": { "element": "node", "id": 634133416 }, "geometry": { "type": "Point", "coordinates": [ 78.5104316, 17.4047791 ] } },
{ "type": "Feature", "properties": { "element": "node", "id": 634133490 }, "geometry": { "type": "Point", "coordinates": [ 78.5118074, 17.406031 ] } },
{ "type": "Feature", "properties": { "element": "node", "id": 665132277 }, "geometry": { "type": "Point", "coordinates": [ 78.5334081, 17.428864 ] } },
{ "type": "Feature", "properties": { "element": "node", "id": 726223497 }, "geometry": { "type": "Point", "coordinates": [ 78.4635984, 17.4092366 ] } },
{ "type": "Feature", "properties": { "element": "node", "id": 726711488 }, "geometry": { "type": "Point", "coordinates": [ 78.4842358, 17.4021361 ] } },
{ "type": "Feature", "properties": { "element": "node", "id": 726712215 }, "geometry": { "type": "Point", "coordinates": [ 78.482496, 17.4031461 ] } },
{ "type": "Feature", "properties": { "element": "node", "id": 813570573 }, "geometry": { "type": "Point", "coordinates": [ 78.4072757, 17.4311866 ] } },
{ "type": "Feature", "properties": { "element": "node", "id": 817354436 }, "geometry": { "type": "Point", "coordinates": [ 78.4631239, 17.444522 ] } },
{ "type": "Feature", "properties": { "element": "node", "id": 888544514 }, "geometry": { "type": "Point", "coordinates": [ 78.3674411, 17.469086 ] } },
{ "type": "Feature", "properties": { "element": "node", "id": 945060441 }, "geometry": { "type": "Point", "coordinates": [ 78.4373357, 17.4102713 ] } },
{ "type": "Feature", "properties": { "element": "node", "id": 1042229873 }, "geometry": { "type": "Point", "coordinates": [ 78.3847015, 17.4460891 ] } },
{ "type": "Feature", "properties": { "element": "node", "id": 1124259664 }, "geometry": { "type": "Point", "coordinates": [ 78.5154533, 17.4048217 ] } },
{ "type": "Feature", "properties": { "element": "node", "id": 1215204846 }, "geometry": { "type": "Point", "coordinates": [ 78.3666088, 17.4641026 ] } },
{ "type": "Feature", "properties": { "element": "node", "id": 1215207993 }, "geometry": { "type": "Point", "coordinates": [ 78.3672516, 17.4652977 ] } },
{ "type": "Feature", "properties": { "element": "node", "id": 1306268405 }, "geometry": { "type": "Point", "coordinates": [ 78.4976953, 17.4844091 ] } },
{ "type": "Feature", "properties": { "element": "node", "id": 1435296000 }, "geometry": { "type": "Point", "coordinates": [ 78.5360546, 17.4500675 ] } },
{ "type": "Feature", "properties": { "element": "node", "id": 1435296252 }, "geometry": { "type": "Point", "coordinates": [ 78.5349163, 17.4500557 ] } },
{ "type": "Feature", "properties": { "element": "node", "id": 1435307430 }, "geometry": { "type": "Point", "coordinates": [ 78.5315476, 17.4499508 ] } },
{ "type": "Feature", "properties": { "element": "node", "id": 1435307431 }, "geometry": { "type": "Point", "coordinates": [ 78.5354189, 17.4505025 ] } },
{ "type": "Feature", "properties": { "element": "node", "id": 1452419059 }, "geometry": { "type": "Point", "coordinates": [ 78.3661033, 17.4600092 ] } },
{ "type": "Feature", "properties": { "element": "node", "id": 1516138173 }, "geometry": { "type": "Point", "coordinates": [ 78.4581378, 17.3869279 ] } },
{ "type": "Feature", "properties": { "element": "node", "id": 1779441445 }, "geometry": { "type": "Point", "coordinates": [ 78.4530481, 17.4271176 ] } },
{ "type": "Feature", "properties": { "element": "node", "id": 1779566184 }, "geometry": { "type": "Point", "coordinates": [ 78.5338972, 17.4255333 ] } },
{ "type": "Feature", "properties": { "element": "node", "id": 1872508643 }, "geometry": { "type": "Point", "coordinates": [ 78.4216433, 17.4762797 ] } },
{ "type": "Feature", "properties": { "element": "node", "id": 1883482610 }, "geometry": { "type": "Point", "coordinates": [ 78.4487295, 17.4306001 ] } },
{ "type": "Feature", "properties": { "element": "node", "id": 1883488179 }, "geometry": { "type": "Point", "coordinates": [ 78.4384278, 17.4266813 ] } },
{ "type": "Feature", "properties": { "element": "node", "id": 1885686786 }, "geometry": { "type": "Point", "coordinates": [ 78.4396942, 17.4288307 ] } },
{ "type": "Feature", "properties": { "element": "node", "id": 1985688898 }, "geometry": { "type": "Point", "coordinates": [ 78.3953642, 17.4872341 ] } },
{ "type": "Feature", "properties": { "element": "node", "id": 2023660439 }, "geometry": { "type": "Point", "coordinates": [ 78.4093927, 17.498029 ] } },
{ "type": "Feature", "properties": { "element": "node", "id": 2080790570 }, "geometry": { "type": "Point", "coordinates": [ 78.4268429, 17.3357768 ] } },
{ "type": "Feature", "properties": { "element": "node", "id": 2080790571 }, "geometry": { "type": "Point", "coordinates": [ 78.4268268, 17.3357307 ] } },
{ "type": "Feature", "properties": { "element": "node", "id": 2208171899 }, "geometry": { "type": "Point", "coordinates": [ 78.4564539, 17.4302674 ] } },
{ "type": "Feature", "properties": { "element": "node", "id": 2429321435 }, "geometry": { "type": "Point", "coordinates": [ 78.5456459, 17.3723791 ] } },
{ "type": "Feature", "properties": { "element": "node", "id": 2430142883 }, "geometry": { "type": "Point", "coordinates": [ 78.5523864, 17.3746506 ] } },
{ "type": "Feature", "properties": { "element": "node", "id": 2579740692 }, "geometry": { "type": "Point", "coordinates": [ 78.3927105, 17.4899266 ] } },
{ "type": "Feature", "properties": { "element": "node", "id": 2582304433 }, "geometry": { "type": "Point", "coordinates": [ 78.3711771, 17.4582989 ] } },
{ "type": "Feature", "properties": { "element": "node", "id": 2586288038 }, "geometry": { "type": "Point", "coordinates": [ 78.3646926, 17.4561835 ] } },
{ "type": "Feature", "properties": { "element": "node", "id": 2606017581 }, "geometry": { "type": "Point", "coordinates": [ 78.4534942, 17.4170807 ] } },
{ "type": "Feature", "properties": { "element": "node", "id": 2616358877 }, "geometry": { "type": "Point", "coordinates": [ 78.3430086, 17.4948996 ] } },
{ "type": "Feature", "properties": { "element": "node", "id": 2701643672 }, "geometry": { "type": "Point", "coordinates": [ 78.3569066, 17.4696775 ] } },
{ "type": "Feature", "properties": { "element": "node", "id": 2702452111 }, "geometry": { "type": "Point", "coordinates": [ 78.4984613, 17.4123605 ] } },
{ "type": "Feature", "properties": { "element": "node", "id": 2708157529 }, "geometry": { "type": "Point", "coordinates": [ 78.5111794, 17.3949251 ] } },
{ "type": "Feature", "properties": { "element": "node", "id": 2710732019 }, "geometry": { "type": "Point", "coordinates": [ 78.5693859, 17.3305796 ] } },
{ "type": "Feature", "properties": { "element": "node", "id": 2710748272 }, "geometry": { "type": "Point", "coordinates": [ 78.5692786, 17.3299651 ] } },
{ "type": "Feature", "properties": { "element": "node", "id": 2710757269 }, "geometry": { "type": "Point", "coordinates": [ 78.4116846, 17.4949521 ] } },
{ "type": "Feature", "properties": { "element": "node", "id": 2710770238 }, "geometry": { "type": "Point", "coordinates": [ 78.4089417, 17.4918634 ] } },
{ "type": "Feature", "properties": { "element": "node", "id": 2712657371 }, "geometry": { "type": "Point", "coordinates": [ 78.489029, 17.4109516 ] } },
{ "type": "Feature", "properties": { "element": "node", "id": 2794745057 }, "geometry": { "type": "Point", "coordinates": [ 78.4818181, 17.4401842 ] } },
{ "type": "Feature", "properties": { "element": "node", "id": 2835658444 }, "geometry": { "type": "Point", "coordinates": [ 78.4242767, 17.4505098 ] } },
{ "type": "Feature", "properties": { "element": "node", "id": 2949046160 }, "geometry": { "type": "Point", "coordinates": [ 78.4278431, 17.3272046 ] } },
{ "type": "Feature", "properties": { "element": "node", "id": 3010422044 }, "geometry": { "type": "Point", "coordinates": [ 78.3566273, 17.505232 ] } },
{ "type": "Feature", "properties": { "element": "node", "id": 3103287209 }, "geometry": { "type": "Point", "coordinates": [ 78.4376286, 17.4504148 ] } },
{ "type": "Feature", "properties": { "element": "node", "id": 3155644503 }, "geometry": { "type": "Point", "coordinates": [ 78.4338279, 17.4366207 ] } },
{ "type": "Feature", "properties": { "element": "node", "id": 3155648512 }, "geometry": { "type": "Point", "coordinates": [ 78.4359683, 17.4360885 ] } },
{ "type": "Feature", "properties": { "element": "node", "id": 3155668626 }, "geometry": { "type": "Point", "coordinates": [ 78.4364036, 17.4363112 ] } },
{ "type": "Feature", "properties": { "element": "node", "id": 3159027215 }, "geometry": { "type": "Point", "coordinates": [ 78.439368, 17.4362402 ] } },
{ "type": "Feature", "properties": { "element": "node", "id": 3159027239 }, "geometry": { "type": "Point", "coordinates": [ 78.4424276, 17.4395391 ] } },
{ "type": "Feature", "properties": { "element": "node", "id": 3170242753 }, "geometry": { "type": "Point", "coordinates": [ 78.3914312, 17.488407 ] } },
{ "type": "Feature", "properties": { "element": "node", "id": 3210306321 }, "geometry": { "type": "Point", "coordinates": [ 78.4100386, 17.4931799 ] } },
{ "type": "Feature", "properties": { "element": "node", "id": 3387347823 }, "geometry": { "type": "Point", "coordinates": [ 78.3945734, 17.4945094 ] } },
{ "type": "Feature", "properties": { "element": "node", "id": 3388794150 }, "geometry": { "type": "Point", "coordinates": [ 78.5438705, 17.4063747 ] } },
{ "type": "Feature", "properties": { "element": "node", "id": 3388795592 }, "geometry": { "type": "Point", "coordinates": [ 78.4040118, 17.4930485 ] } },
{ "type": "Feature", "properties": { "element": "node", "id": 3388904751 }, "geometry": { "type": "Point", "coordinates": [ 78.4057461, 17.4964439 ] } },
{ "type": "Feature", "properties": { "element": "node", "id": 3530186282 }, "geometry": { "type": "Point", "coordinates": [ 78.514658, 17.34847 ] } },
{ "type": "Feature", "properties": { "element": "node", "id": 3777418109 }, "geometry": { "type": "Point", "coordinates": [ 78.4568923, 17.4255244 ] } },
{ "type": "Feature", "properties": { "element": "node", "id": 3777427328 }, "geometry": { "type": "Point", "coordinates": [ 78.457334, 17.4260486 ] } },
{ "type": "Feature", "properties": { "element": "node", "id": 4187300496 }, "geometry": { "type": "Point", "coordinates": [ 78.4737097, 17.3570114 ] } },
{ "type": "Feature", "properties": { "element": "node", "id": 4199100989 }, "geometry": { "type": "Point", "coordinates": [ 78.4472569, 17.446636 ] } },
{ "type": "Feature", "properties": { "element": "node", "id": 4320741194 }, "geometry": { "type": "Point", "coordinates": [ 78.4562201, 17.4303803 ] } },
{ "type": "Feature", "properties": { "element": "node", "id": 4416374790 }, "geometry": { "type": "Point", "coordinates": [ 78.4887819, 17.4012459 ] } },
{ "type": "Feature", "properties": { "element": "node", "id": 4428976091 }, "geometry": { "type": "Point", "coordinates": [ 78.4887277, 17.4011413 ] } },
{ "type": "Feature", "properties": { "element": "node", "id": 4431912293 }, "geometry": { "type": "Point", "coordinates": [ 78.4887156, 17.4011249 ] } },
{ "type": "Feature", "properties": { "element": "node", "id": 4592533689 }, "geometry": { "type": "Point", "coordinates": [ 78.4772678, 17.3887372 ] } },
{ "type": "Feature", "properties": { "element": "node", "id": 4637257912 }, "geometry": { "type": "Point", "coordinates": [ 78.3623473, 17.469727 ] } },
{ "type": "Feature", "properties": { "element": "node", "id": 4646383994 }, "geometry": { "type": "Point", "coordinates": [ 78.3991994, 17.408952 ] } },
{ "type": "Feature", "properties": { "element": "node", "id": 4664867890 }, "geometry": { "type": "Point", "coordinates": [ 78.3280012, 17.493588 ] } },
{ "type": "Feature", "properties": { "element": "node", "id": 4672021894 }, "geometry": { "type": "Point", "coordinates": [ 78.4025586, 17.4206759 ] } },
{ "type": "Feature", "properties": { "element": "node", "id": 4674785290 }, "geometry": { "type": "Point", "coordinates": [ 78.3139429, 17.4882539 ] } },
{ "type": "Feature", "properties": { "element": "node", "id": 4674815189 }, "geometry": { "type": "Point", "coordinates": [ 78.3132697, 17.4860165 ] } },
{ "type": "Feature", "properties": { "element": "node", "id": 4691764097 }, "geometry": { "type": "Point", "coordinates": [ 78.4119627, 17.4171189 ] } },
{ "type": "Feature", "properties": { "element": "node", "id": 4695594591 }, "geometry": { "type": "Point", "coordinates": [ 78.3236847, 17.4891696 ] } },
{ "type": "Feature", "properties": { "element": "node", "id": 4773276015 }, "geometry": { "type": "Point", "coordinates": [ 78.3649253, 17.4500825 ] } },
{ "type": "Feature", "properties": { "element": "node", "id": 4989366576 }, "geometry": { "type": "Point", "coordinates": [ 78.3471051, 17.4637371 ] } },
{ "type": "Feature", "properties": { "element": "node", "id": 4989366577 }, "geometry": { "type": "Point", "coordinates": [ 78.3471326, 17.4637403 ] } },
{ "type": "Feature", "properties": { "element": "node", "id": 5022221723 }, "geometry": { "type": "Point", "coordinates": [ 78.448766, 17.4138816 ] } },
{ "type": "Feature", "properties": { "element": "node", "id": 5163286622 }, "geometry": { "type": "Point", "coordinates": [ 78.5585659, 17.3428471 ] } },
{ "type": "Feature", "properties": { "element": "node", "id": 5325066530 }, "geometry": { "type": "Point", "coordinates": [ 78.3421983, 17.4954197 ] } },
{ "type": "Feature", "properties": { "element": "node", "id": 5367392406 }, "geometry": { "type": "Point", "coordinates": [ 78.3680797, 17.4949794 ] } },
{ "type": "Feature", "properties": { "element": "node", "id": 5404973144 }, "geometry": { "type": "Point", "coordinates": [ 78.3548368, 17.4431249 ] } },
{ "type": "Feature", "properties": { "element": "node", "id": 5527680130 }, "geometry": { "type": "Point", "coordinates": [ 78.5136319, 17.3680279 ] } },
{ "type": "Feature", "properties": { "element": "node", "id": 5539317129 }, "geometry": { "type": "Point", "coordinates": [ 78.5192864, 17.4178073 ] } },
{ "type": "Feature", "properties": { "element": "node", "id": 5549552100 }, "geometry": { "type": "Point", "coordinates": [ 78.4885066, 17.3905854 ] } },
{ "type": "Feature", "properties": { "element": "node", "id": 5565535258 }, "geometry": { "type": "Point", "coordinates": [ 78.4378558, 17.3943466 ] } },
{ "type": "Feature", "properties": { "element": "node", "id": 5572477891 }, "geometry": { "type": "Point", "coordinates": [ 78.542157, 17.5019607 ] } },
{ "type": "Feature", "properties": { "element": "node", "id": 5617425021 }, "geometry": { "type": "Point", "coordinates": [ 78.3972211, 17.4960924 ] } },
{ "type": "Feature", "properties": { "element": "node", "id": 5620024296 }, "geometry": { "type": "Point", "coordinates": [ 78.4484606, 17.4197297 ] } },
{ "type": "Feature", "properties": { "element": "node", "id": 5622328321 }, "geometry": { "type": "Point", "coordinates": [ 78.4829918, 17.5212099 ] } },
{ "type": "Feature", "properties": { "element": "node", "id": 5664317761 }, "geometry": { "type": "Point", "coordinates": [ 78.3254078, 17.4303207 ] } },
{ "type": "Feature", "properties": { "element": "node", "id": 5682100369 }, "geometry": { "type": "Point", "coordinates": [ 78.384644, 17.4416015 ] } },
{ "type": "Feature", "properties": { "element": "node", "id": 5873950226 }, "geometry": { "type": "Point", "coordinates": [ 78.3888899, 17.4856203 ] } },
{ "type": "Feature", "properties": { "element": "node", "id": 5957568091 }, "geometry": { "type": "Point", "coordinates": [ 78.3856663, 17.445108 ] } },
{ "type": "Feature", "properties": { "element": "node", "id": 6029139570 }, "geometry": { "type": "Point", "coordinates": [ 78.5263602, 17.3643545 ] } },
{ "type": "Feature", "properties": { "element": "node", "id": 6029139572 }, "geometry": { "type": "Point", "coordinates": [ 78.5262738, 17.3619717 ] } },
{ "type": "Feature", "properties": { "element": "node", "id": 6218852886 }, "geometry": { "type": "Point", "coordinates": [ 78.4513702, 17.4059604 ] } },
{ "type": "Feature", "properties": { "element": "node", "id": 6249185486 }, "geometry": { "type": "Point", "coordinates": [ 78.3895096, 17.488077 ] } },
{ "type": "Feature", "properties": { "element": "node", "id": 6249912085 }, "geometry": { "type": "Point", "coordinates": [ 78.4534576, 17.400537 ] } },
{ "type": "Feature", "properties": { "element": "node", "id": 6255607713 }, "geometry": { "type": "Point", "coordinates": [ 78.4633917, 17.4028301 ] } },
{ "type": "Feature", "properties": { "element": "node", "id": 6259467986 }, "geometry": { "type": "Point", "coordinates": [ 78.3943368, 17.4519138 ] } },
{ "type": "Feature", "properties": { "element": "node", "id": 6263600287 }, "geometry": { "type": "Point", "coordinates": [ 78.5566927, 17.407475 ] } },
{ "type": "Feature", "properties": { "element": "node", "id": 6263660887 }, "geometry": { "type": "Point", "coordinates": [ 78.5558034, 17.4061084 ] } },
{ "type": "Feature", "properties": { "element": "node", "id": 6297956642 }, "geometry": { "type": "Point", "coordinates": [ 78.4158075, 17.454119 ] } },
{ "type": "Feature", "properties": { "element": "node", "id": 6308240124 }, "geometry": { "type": "Point", "coordinates": [ 78.4852418, 17.4079028 ] } },
{ "type": "Feature", "properties": { "element": "node", "id": 6308240125 }, "geometry": { "type": "Point", "coordinates": [ 78.4852244, 17.4068733 ] } },
{ "type": "Feature", "properties": { "element": "node", "id": 6308240126 }, "geometry": { "type": "Point", "coordinates": [ 78.486198, 17.40789 ] } },
{ "type": "Feature", "properties": { "element": "node", "id": 6312938486 }, "geometry": { "type": "Point", "coordinates": [ 78.4095749, 17.4297305 ] } },
{ "type": "Feature", "properties": { "element": "node", "id": 6370029722 }, "geometry": { "type": "Point", "coordinates": [ 78.4528678, 17.514259 ] } },
{ "type": "Feature", "properties": { "element": "node", "id": 6400631766 }, "geometry": { "type": "Point", "coordinates": [ 78.5138476, 17.3686252 ] } },
{ "type": "Feature", "properties": { "element": "node", "id": 6616114203 }, "geometry": { "type": "Point", "coordinates": [ 78.3354892, 17.5042981 ] } },
{ "type": "Feature", "properties": { "element": "node", "id": 6616114204 }, "geometry": { "type": "Point", "coordinates": [ 78.3355858, 17.50449 ] } },
{ "type": "Feature", "properties": { "element": "node", "id": 6652622186 }, "geometry": { "type": "Point", "coordinates": [ 78.4995744, 17.3728801 ] } },
{ "type": "Feature", "properties": { "element": "node", "id": 6652949192 }, "geometry": { "type": "Point", "coordinates": [ 78.4453263, 17.4073307 ] } },
{ "type": "Feature", "properties": { "element": "node", "id": 6765562752 }, "geometry": { "type": "Point", "coordinates": [ 78.5127984, 17.423162 ] } },
{ "type": "Feature", "properties": { "element": "node", "id": 6765562758 }, "geometry": { "type": "Point", "coordinates": [ 78.5126442, 17.4231107 ] } },
{ "type": "Feature", "properties": { "element": "node", "id": 6765562760 }, "geometry": { "type": "Point", "coordinates": [ 78.5173551, 17.4279413 ] } },
{ "type": "Feature", "properties": { "element": "node", "id": 6765562763 }, "geometry": { "type": "Point", "coordinates": [ 78.5134238, 17.4233298 ] } },
{ "type": "Feature", "properties": { "element": "node", "id": 6776351527 }, "geometry": { "type": "Point", "coordinates": [ 78.5168693, 17.4220368 ] } },
{ "type": "Feature", "properties": { "element": "node", "id": 6779931600 }, "geometry": { "type": "Point", "coordinates": [ 78.4079407, 17.4930152 ] } },
{ "type": "Feature", "properties": { "element": "node", "id": 6789801386 }, "geometry": { "type": "Point", "coordinates": [ 78.3216127, 17.4945769 ] } },
{ "type": "Feature", "properties": { "element": "node", "id": 6810762246 }, "geometry": { "type": "Point", "coordinates": [ 78.5531165, 17.4782346 ] } },
{ "type": "Feature", "properties": { "element": "node", "id": 6822126654 }, "geometry": { "type": "Point", "coordinates": [ 78.43481, 17.443697 ] } },
{ "type": "Feature", "properties": { "element": "node", "id": 6850830333 }, "geometry": { "type": "Point", "coordinates": [ 78.4613656, 17.4455149 ] } },
{ "type": "Feature", "properties": { "element": "node", "id": 6855217286 }, "geometry": { "type": "Point", "coordinates": [ 78.3710391, 17.4583523 ] } },
{ "type": "Feature", "properties": { "element": "node", "id": 6868660395 }, "geometry": { "type": "Point", "coordinates": [ 78.4227384, 17.4554716 ] } },
{ "type": "Feature", "properties": { "element": "node", "id": 6868660396 }, "geometry": { "type": "Point", "coordinates": [ 78.4221941, 17.4550062 ] } },
{ "type": "Feature", "properties": { "element": "node", "id": 6868660402 }, "geometry": { "type": "Point", "coordinates": [ 78.4212141, 17.4541191 ] } },
{ "type": "Feature", "properties": { "element": "node", "id": 6935221552 }, "geometry": { "type": "Point", "coordinates": [ 78.4794528, 17.4800803 ] } },
{ "type": "Feature", "properties": { "element": "node", "id": 6935428149 }, "geometry": { "type": "Point", "coordinates": [ 78.4772289, 17.4821223 ] } },
{ "type": "Feature", "properties": { "element": "node", "id": 6935545368 }, "geometry": { "type": "Point", "coordinates": [ 78.3920674, 17.4497697 ] } },
{ "type": "Feature", "properties": { "element": "node", "id": 6935611887 }, "geometry": { "type": "Point", "coordinates": [ 78.4626247, 17.4410591 ] } },
{ "type": "Feature", "properties": { "element": "node", "id": 6949244903 }, "geometry": { "type": "Point", "coordinates": [ 78.3674272, 17.4639813 ] } },
{ "type": "Feature", "properties": { "element": "node", "id": 6950562608 }, "geometry": { "type": "Point", "coordinates": [ 78.355313, 17.5064202 ] } },
{ "type": "Feature", "properties": { "element": "node", "id": 6982993985 }, "geometry": { "type": "Point", "coordinates": [ 78.4294128, 17.3685253 ] } },
{ "type": "Feature", "properties": { "element": "node", "id": 7002704876 }, "geometry": { "type": "Point", "coordinates": [ 78.3871485, 17.4888452 ] } },
{ "type": "Feature", "properties": { "element": "node", "id": 7008053386 }, "geometry": { "type": "Point", "coordinates": [ 78.5552459, 17.4808787 ] } },
{ "type": "Feature", "properties": { "element": "node", "id": 7008058784 }, "geometry": { "type": "Point", "coordinates": [ 78.5925776, 17.331392 ] } },
{ "type": "Feature", "properties": { "element": "node", "id": 7008880759 }, "geometry": { "type": "Point", "coordinates": [ 78.3970415, 17.495187 ] } },
{ "type": "Feature", "properties": { "element": "node", "id": 7010429422 }, "geometry": { "type": "Point", "coordinates": [ 78.3634002, 17.457546 ] } },
{ "type": "Feature", "properties": { "element": "node", "id": 7025820755 }, "geometry": { "type": "Point", "coordinates": [ 78.3943343, 17.44053 ] } },
{ "type": "Feature", "properties": { "element": "node", "id": 7025820776 }, "geometry": { "type": "Point", "coordinates": [ 78.3990718, 17.4441769 ] } },
{ "type": "Feature", "properties": { "element": "node", "id": 7025820869 }, "geometry": { "type": "Point", "coordinates": [ 78.4021219, 17.4365456 ] } },
{ "type": "Feature", "properties": { "element": "node", "id": 7046190484 }, "geometry": { "type": "Point", "coordinates": [ 78.3638725, 17.4468817 ] } },
{ "type": "Feature", "properties": { "element": "node", "id": 7066081506 }, "geometry": { "type": "Point", "coordinates": [ 78.3626074, 17.4522698 ] } },
{ "type": "Feature", "properties": { "element": "node", "id": 7088365504 }, "geometry": { "type": "Point", "coordinates": [ 78.4484512, 17.4376637 ] } },
{ "type": "Feature", "properties": { "element": "node", "id": 7114069986 }, "geometry": { "type": "Point", "coordinates": [ 78.3978251, 17.4904278 ] } },
{ "type": "Feature", "properties": { "element": "node", "id": 7165443684 }, "geometry": { "type": "Point", "coordinates": [ 78.4236229, 17.4506079 ] } },
{ "type": "Feature", "properties": { "element": "node", "id": 7171281958 }, "geometry": { "type": "Point", "coordinates": [ 78.5363807, 17.3549342 ] } },
{ "type": "Feature", "properties": { "element": "node", "id": 7180262406 }, "geometry": { "type": "Point", "coordinates": [ 78.3810316, 17.4666865 ] } },
{ "type": "Feature", "properties": { "element": "node", "id": 7243946113 }, "geometry": { "type": "Point", "coordinates": [ 78.3562473, 17.4949494 ] } },
{ "type": "Feature", "properties": { "element": "node", "id": 7243946117 }, "geometry": { "type": "Point", "coordinates": [ 78.3567251, 17.4950161 ] } },
{ "type": "Feature", "properties": { "element": "node", "id": 7243974414 }, "geometry": { "type": "Point", "coordinates": [ 78.5034854, 17.3962766 ] } },
{ "type": "Feature", "properties": { "element": "node", "id": 7244033608 }, "geometry": { "type": "Point", "coordinates": [ 78.5208106, 17.3671125 ] } },
{ "type": "Feature", "properties": { "element": "node", "id": 7244113109 }, "geometry": { "type": "Point", "coordinates": [ 78.5224935, 17.3672111 ] } },
{ "type": "Feature", "properties": { "element": "node", "id": 7244163080 }, "geometry": { "type": "Point", "coordinates": [ 78.3527273, 17.492792 ] } },
{ "type": "Feature", "properties": { "element": "node", "id": 7244168643 }, "geometry": { "type": "Point", "coordinates": [ 78.4148451, 17.4984836 ] } },
{ "type": "Feature", "properties": { "element": "node", "id": 7244175515 }, "geometry": { "type": "Point", "coordinates": [ 78.5394698, 17.3740259 ] } },
{ "type": "Feature", "properties": { "element": "node", "id": 7244184393 }, "geometry": { "type": "Point", "coordinates": [ 78.409625, 17.4981041 ] } },
{ "type": "Feature", "properties": { "element": "node", "id": 7244229677 }, "geometry": { "type": "Point", "coordinates": [ 78.4498652, 17.4349848 ] } },
{ "type": "Feature", "properties": { "element": "node", "id": 7244264230 }, "geometry": { "type": "Point", "coordinates": [ 78.4862354, 17.3995968 ] } },
{ "type": "Feature", "properties": { "element": "node", "id": 7244264235 }, "geometry": { "type": "Point", "coordinates": [ 78.4867394, 17.3993051 ] } },
{ "type": "Feature", "properties": { "element": "node", "id": 7244467459 }, "geometry": { "type": "Point", "coordinates": [ 78.5265703, 17.3648025 ] } },
{ "type": "Feature", "properties": { "element": "node", "id": 7246482630 }, "geometry": { "type": "Point", "coordinates": [ 78.3960129, 17.4956436 ] } },
{ "type": "Feature", "properties": { "element": "node", "id": 7246516889 }, "geometry": { "type": "Point", "coordinates": [ 78.4159365, 17.5006736 ] } },
{ "type": "Feature", "properties": { "element": "node", "id": 7246565385 }, "geometry": { "type": "Point", "coordinates": [ 78.5473148, 17.3474607 ] } },
{ "type": "Feature", "properties": { "element": "node", "id": 7246583492 }, "geometry": { "type": "Point", "coordinates": [ 78.5454656, 17.3455982 ] } },
{ "type": "Feature", "properties": { "element": "node", "id": 7246834917 }, "geometry": { "type": "Point", "coordinates": [ 78.5319211, 17.3692525 ] } },
{ "type": "Feature", "properties": { "element": "node", "id": 7365877558 }, "geometry": { "type": "Point", "coordinates": [ 78.3894359, 17.5003614 ] } },
{ "type": "Feature", "properties": { "element": "node", "id": 7533426345 }, "geometry": { "type": "Point", "coordinates": [ 78.4105069, 17.4172233 ] } },
{ "type": "Feature", "properties": { "element": "node", "id": 7560734075 }, "geometry": { "type": "Point", "coordinates": [ 78.5323695, 17.4791624 ] } },
{ "type": "Feature", "properties": { "element": "node", "id": 7625682287 }, "geometry": { "type": "Point", "coordinates": [ 78.3652422, 17.4668648 ] } },
{ "type": "Feature", "properties": { "element": "node", "id": 7642406389 }, "geometry": { "type": "Point", "coordinates": [ 78.5030147, 17.4403663 ] } },
{ "type": "Feature", "properties": { "element": "node", "id": 7698782486 }, "geometry": { "type": "Point", "coordinates": [ 78.4459759, 17.4417042 ] } },
{ "type": "Feature", "properties": { "element": "node", "id": 7917719787 }, "geometry": { "type": "Point", "coordinates": [ 78.4919158, 17.4112363 ] } },
{ "type": "Feature", "properties": { "element": "node", "id": 7965803694 }, "geometry": { "type": "Point", "coordinates": [ 78.5389454, 17.4868657 ] } },
{ "type": "Feature", "properties": { "element": "node", "id": 8005899360 }, "geometry": { "type": "Point", "coordinates": [ 78.3549447, 17.5006132 ] } },
{ "type": "Feature", "properties": { "element": "node", "id": 8110754616 }, "geometry": { "type": "Point", "coordinates": [ 78.3825724, 17.3886789 ] } },
{ "type": "Feature", "properties": { "element": "node", "id": 8110758017 }, "geometry": { "type": "Point", "coordinates": [ 78.3823481, 17.3861939 ] } },
{ "type": "Feature", "properties": { "element": "node", "id": 8110911723 }, "geometry": { "type": "Point", "coordinates": [ 78.3825624, 17.3907309 ] } },
{ "type": "Feature", "properties": { "element": "node", "id": 8111098697 }, "geometry": { "type": "Point", "coordinates": [ 78.4955046, 17.4057061 ] } },
{ "type": "Feature", "properties": { "element": "node", "id": 8113810109 }, "geometry": { "type": "Point", "coordinates": [ 78.5692467, 17.4063098 ] } },
{ "type": "Feature", "properties": { "element": "node", "id": 8113838170 }, "geometry": { "type": "Point", "coordinates": [ 78.5476319, 17.3641067 ] } },
{ "type": "Feature", "properties": { "element": "node", "id": 8193147569 }, "geometry": { "type": "Point", "coordinates": [ 78.3965747, 17.521489 ] } },
{ "type": "Feature", "properties": { "element": "node", "id": 8212448075 }, "geometry": { "type": "Point", "coordinates": [ 78.5116611, 17.4994218 ] } },
{ "type": "Feature", "properties": { "element": "node", "id": 8212489364 }, "geometry": { "type": "Point", "coordinates": [ 78.511367, 17.4997156 ] } },
{ "type": "Feature", "properties": { "element": "node", "id": 8233220020 }, "geometry": { "type": "Point", "coordinates": [ 78.5049503, 17.4400212 ] } },
{ "type": "Feature", "properties": { "element": "node", "id": 8233700552 }, "geometry": { "type": "Point", "coordinates": [ 78.5067825, 17.3725101 ] } },
{ "type": "Feature", "properties": { "element": "node", "id": 8315262230 }, "geometry": { "type": "Point", "coordinates": [ 78.4353476, 17.3835626 ] } },
{ "type": "Feature", "properties": { "element": "node", "id": 8315262842 }, "geometry": { "type": "Point", "coordinates": [ 78.4343629, 17.384879 ] } },
{ "type": "Feature", "properties": { "element": "node", "id": 8349937774 }, "geometry": { "type": "Point", "coordinates": [ 78.3099941, 17.4736031 ] } },
{ "type": "Feature", "properties": { "element": "node", "id": 8386556885 }, "geometry": { "type": "Point", "coordinates": [ 78.5289831, 17.3955329 ] } },
{ "type": "Feature", "properties": { "element": "node", "id": 8386566914 }, "geometry": { "type": "Point", "coordinates": [ 78.5287694, 17.3957542 ] } },
{ "type": "Feature", "properties": { "element": "node", "id": 8386727030 }, "geometry": { "type": "Point", "coordinates": [ 78.3482583, 17.4946955 ] } },
{ "type": "Feature", "properties": { "element": "node", "id": 8387157877 }, "geometry": { "type": "Point", "coordinates": [ 78.538357, 17.4271549 ] } },
{ "type": "Feature", "properties": { "element": "node", "id": 8387157892 }, "geometry": { "type": "Point", "coordinates": [ 78.5337989, 17.4296632 ] } },
{ "type": "Feature", "properties": { "element": "node", "id": 8389405333 }, "geometry": { "type": "Point", "coordinates": [ 78.4486701, 17.4823525 ] } },
{ "type": "Feature", "properties": { "element": "node", "id": 8891813162 }, "geometry": { "type": "Point", "coordinates": [ 78.4144249, 17.4349182 ] } },
{ "type": "Feature", "properties": { "element": "node", "id": 8892679276 }, "geometry": { "type": "Point", "coordinates": [ 78.4240673, 17.4505198 ] } },
{ "type": "Feature", "properties": { "element": "node", "id": 8892679279 }, "geometry": { "type": "Point", "coordinates": [ 78.4229924, 17.4513148 ] } },
{ "type": "Feature", "properties": { "element": "node", "id": 8892679281 }, "geometry": { "type": "Point", "coordinates": [ 78.4229536, 17.4524181 ] } },
{ "type": "Feature", "properties": { "element": "node", "id": 8909248527 }, "geometry": { "type": "Point", "coordinates": [ 78.4332664, 17.4440636 ] } },
{ "type": "Feature", "properties": { "element": "node", "id": 8990523758 }, "geometry": { "type": "Point", "coordinates": [ 78.5541349, 17.4818864 ] } },
{ "type": "Feature", "properties": { "element": "node", "id": 9391096288 }, "geometry": { "type": "Point", "coordinates": [ 78.5382835, 17.4378229 ] } },
{ "type": "Feature", "properties": { "element": "node", "id": 9496252336 }, "geometry": { "type": "Point", "coordinates": [ 78.4488416, 17.3930517 ] } },
{ "type": "Feature", "properties": { "element": "node", "id": 9605712107 }, "geometry": { "type": "Point", "coordinates": [ 78.3352474, 17.49145 ] } },
{ "type": "Feature", "properties": { "element": "node", "id": 9708882627 }, "geometry": { "type": "Point", "coordinates": [ 78.5084056, 17.3487653 ] } },
{ "type": "Feature", "properties": { "element": "node", "id": 9819816515 }, "geometry": { "type": "Point", "coordinates": [ 78.5378968, 17.4019595 ] } },
{ "type": "Feature", "properties": { "element": "node", "id": 9918909838 }, "geometry": { "type": "Point", "coordinates": [ 78.4834001, 17.4716357 ] } },
{ "type": "Feature", "properties": { "element": "node", "id": 10171328851 }, "geometry": { "type": "Point", "coordinates": [ 78.3918238, 17.4505044 ] } },
{ "type": "Feature", "properties": { "element": "node", "id": 10244211021 }, "geometry": { "type": "Point", "coordinates": [ 78.5496479, 17.425566 ] } },
{ "type": "Feature", "properties": { "element": "node", "id": 10253790309 }, "geometry": { "type": "Point", "coordinates": [ 78.4569744, 17.3928515 ] } },
{ "type": "Feature", "properties": { "element": "node", "id": 10279481518 }, "geometry": { "type": "Point", "coordinates": [ 78.4417693, 17.3596237 ] } },
{ "type": "Feature", "properties": { "element": "node", "id": 10279582855 }, "geometry": { "type": "Point", "coordinates": [ 78.4509941, 17.44101 ] } },
{ "type": "Feature", "properties": { "element": "node", "id": 10279728115 }, "geometry": { "type": "Point", "coordinates": [ 78.452603, 17.4245106 ] } },
{ "type": "Feature", "properties": { "element": "node", "id": 10279859233 }, "geometry": { "type": "Point", "coordinates": [ 78.568986, 17.330052 ] } },
{ "type": "Feature", "properties": { "element": "node", "id": 10764957376 }, "geometry": { "type": "Point", "coordinates": [ 78.4427781, 17.513308 ] } },
{ "type": "Feature", "properties": { "element": "node", "id": 10764957378 }, "geometry": { "type": "Point", "coordinates": [ 78.442858, 17.5155191 ] } },
{ "type": "Feature", "properties": { "element": "node", "id": 10764957380 }, "geometry": { "type": "Point", "coordinates": [ 78.4433156, 17.5153739 ] } },
{ "type": "Feature", "properties": { "element": "node", "id": 10823084223 }, "geometry": { "type": "Point", "coordinates": [ 78.5442153, 17.3634898 ] } },
{ "type": "Feature", "properties": { "element": "node", "id": 10836252938 }, "geometry": { "type": "Point", "coordinates": [ 78.4391288, 17.3788041 ] } },
{ "type": "Feature", "properties": { "element": "node", "id": 11082594139 }, "geometry": { "type": "Point", "coordinates": [ 78.5129121, 17.3870927 ] } },
{ "type": "Feature", "properties": { "element": "node", "id": 11341063146 }, "geometry": { "type": "Point", "coordinates": [ 78.3407077, 17.4155088 ] } },
{ "type": "Feature", "properties": { "element": "node", "id": 11358156622 }, "geometry": { "type": "Point", "coordinates": [ 78.372362, 17.4896237 ] } },
{ "type": "Feature", "properties": { "element": "node", "id": 11358156632 }, "geometry": { "type": "Point", "coordinates": [ 78.3890722, 17.4841171 ] } },
{ "type": "Feature", "properties": { "element": "node", "id": 11361892275 }, "geometry": { "type": "Point", "coordinates": [ 78.3824212, 17.4958711 ] } },
{ "type": "Feature", "properties": { "element": "node", "id": 11484298985 }, "geometry": { "type": "Point", "coordinates": [ 78.2953797, 17.5103958 ] } },
{ "type": "Feature", "properties": { "element": "node", "id": 11484298992 }, "geometry": { "type": "Point", "coordinates": [ 78.3001447, 17.5095656 ] } },
{ "type": "Feature", "properties": { "element": "node", "id": 11690291882 }, "geometry": { "type": "Point", "coordinates": [ 78.4459299, 17.488934 ] } },
{ "type": "Feature", "properties": { "element": "node", "id": 11690678635 }, "geometry": { "type": "Point", "coordinates": [ 78.5506998, 17.4735119 ] } },
{ "type": "Feature", "properties": { "element": "node", "id": 11747882233 }, "geometry": { "type": "Point", "coordinates": [ 78.4574629, 17.4264967 ] } },
{ "type": "Feature", "properties": { "element": "node", "id": 11772090407 }, "geometry": { "type": "Point", "coordinates": [ 78.3855133, 17.4996183 ] } },
{ "type": "Feature", "properties": { "element": "node", "id": 11919430581 }, "geometry": { "type": "Point", "coordinates": [ 78.5768218, 17.3168486 ] } },
{ "type": "Feature", "properties": { "element": "node", "id": 12245832502 }, "geometry": { "type": "Point", "coordinates": [ 78.4192705, 17.3707667 ] } },
{ "type": "Feature", "properties": { "element": "node", "id": 12413100578 }, "geometry": { "type": "Point", "coordinates": [ 78.4047544, 17.4936849 ] } },
{ "type": "Feature", "properties": { "element": "node", "id": 12483896623 }, "geometry": { "type": "Point", "coordinates": [ 78.3419568, 17.4364495 ] } },
{ "type": "Feature", "properties": { "element": "node", "id": 12536226079 }, "geometry": { "type": "Point", "coordinates": [ 78.5681149, 17.474759 ] } },
{ "type": "Feature", "properties": { "element": "node", "id": 12538723523 }, "geometry": { "type": "Point", "coordinates": [ 78.5681149, 17.474759 ] } },
{ "type": "Feature", "properties": { "element": "node", "id": 12759673561 }, "geometry": { "type": "Point", "coordinates": [ 78.4021244, 17.4044956 ] } },
{ "type": "Feature", "properties": { "element": "node", "id": 12841256313 }, "geometry": { "type": "Point", "coordinates": [ 78.5550753, 17.4000389 ] } },
{ "type": "Feature", "properties": { "element": "node", "id": 12841344418 }, "geometry": { "type": "Point", "coordinates": [ 78.5305729, 17.3944364 ] } },
{ "type": "Feature", "properties": { "element": "node", "id": 12852150693 }, "geometry": { "type": "Point", "coordinates": [ 78.5287934, 17.395655 ] } },
{ "type": "Feature", "properties": { "element": "node", "id": 12854606315 }, "geometry": { "type": "Point", "coordinates": [ 78.495687, 17.396621 ] } },
{ "type": "Feature", "properties": { "element": "node", "id": 13227600335 }, "geometry": { "type": "Point", "coordinates": [ 78.4050706, 17.4058426 ] } },
{ "type": "Feature", "properties": { "element": "node", "id": 13227600336 }, "geometry": { "type": "Point", "coordinates": [ 78.4230978, 17.389183 ] } },
{ "type": "Feature", "properties": { "element": "node", "id": 13227600348 }, "geometry": { "type": "Point", "coordinates": [ 78.4075094, 17.403742 ] } },
{ "type": "Feature", "properties": { "element": "way", "id": 116235711 }, "geometry": { "type": "Point", "coordinates": [ 78.35976055, 17.4417874 ] } },
{ "type": "Feature", "properties": { "element": "way", "id": 129532496 }, "geometry": { "type": "Point", "coordinates": [ 78.419775423049572, 17.480691587619479 ] } },
{ "type": "Feature", "properties": { "element": "way", "id": 273916158 }, "geometry": { "type": "Point", "coordinates": [ 78.435155966748241, 17.451624059615565 ] } },
{ "type": "Feature", "properties": { "element": "way", "id": 340081954 }, "geometry": { "type": "Point", "coordinates": [ 78.391396382624777, 17.481446919231388 ] } },
{ "type": "Feature", "properties": { "element": "way", "id": 343650558 }, "geometry": { "type": "Point", "coordinates": [ 78.405222947349912, 17.494537532027394 ] } },
{ "type": "Feature", "properties": { "element": "way", "id": 355891695 }, "geometry": { "type": "Point", "coordinates": [ 78.362229297256732, 17.509750270214791 ] } },
{ "type": "Feature", "properties": { "element": "way", "id": 355912432 }, "geometry": { "type": "Point", "coordinates": [ 78.537306387303602, 17.485842584232447 ] } },
{ "type": "Feature", "properties": { "element": "way", "id": 356234511 }, "geometry": { "type": "Point", "coordinates": [ 78.41601005, 17.433949 ] } },
{ "type": "Feature", "properties": { "element": "way", "id": 356252757 }, "geometry": { "type": "Point", "coordinates": [ 78.368685649999989, 17.4546746 ] } },
{ "type": "Feature", "properties": { "element": "way", "id": 356445507 }, "geometry": { "type": "Point", "coordinates": [ 78.44000165, 17.51648275 ] } },
{ "type": "Feature", "properties": { "element": "way", "id": 356483369 }, "geometry": { "type": "Point", "coordinates": [ 78.557552749999985, 17.4055094 ] } },
{ "type": "Feature", "properties": { "element": "way", "id": 356560985 }, "geometry": { "type": "Point", "coordinates": [ 78.55628085, 17.47694135 ] } },
{ "type": "Feature", "properties": { "element": "way", "id": 357043382 }, "geometry": { "type": "Point", "coordinates": [ 78.391824973118332, 17.407031889024086 ] } },
{ "type": "Feature", "properties": { "element": "way", "id": 357082427 }, "geometry": { "type": "Point", "coordinates": [ 78.565101173822413, 17.41540124513563 ] } },
{ "type": "Feature", "properties": { "element": "way", "id": 357129494 }, "geometry": { "type": "Point", "coordinates": [ 78.56880915, 17.3455101 ] } },
{ "type": "Feature", "properties": { "element": "way", "id": 357187786 }, "geometry": { "type": "Point", "coordinates": [ 78.46160575, 17.4430934 ] } },
{ "type": "Feature", "properties": { "element": "way", "id": 357348335 }, "geometry": { "type": "Point", "coordinates": [ 78.455348728163457, 17.464301761652564 ] } },
{ "type": "Feature", "properties": { "element": "way", "id": 472478902 }, "geometry": { "type": "Point", "coordinates": [ 78.308873130213328, 17.472718928889829 ] } },
{ "type": "Feature", "properties": { "element": "way", "id": 550373275 }, "geometry": { "type": "Point", "coordinates": [ 78.308883981973992, 17.472389457459901 ] } },
{ "type": "Feature", "properties": { "element": "way", "id": 562381599 }, "geometry": { "type": "Point", "coordinates": [ 78.355408885141699, 17.444300847909794 ] } },
{ "type": "Feature", "properties": { "element": "way", "id": 563384243 }, "geometry": { "type": "Point", "coordinates": [ 78.538964334023689, 17.39955040310349 ] } },
{ "type": "Feature", "properties": { "element": "way", "id": 596737027 }, "geometry": { "type": "Point", "coordinates": [ 78.481948753142021, 17.398794439482465 ] } },
{ "type": "Feature", "properties": { "element": "way", "id": 642221142 }, "geometry": { "type": "Point", "coordinates": [ 78.3950951, 17.4380177 ] } },
{ "type": "Feature", "properties": { "element": "way", "id": 733440576 }, "geometry": { "type": "Point", "coordinates": [ 78.422189365704909, 17.455414183250543 ] } },
{ "type": "Feature", "properties": { "element": "way", "id": 744820527 }, "geometry": { "type": "Point", "coordinates": [ 78.3918738, 17.4505153 ] } },
{ "type": "Feature", "properties": { "element": "way", "id": 747389090 }, "geometry": { "type": "Point", "coordinates": [ 78.428447502683682, 17.369869442657141 ] } },
{ "type": "Feature", "properties": { "element": "way", "id": 758970617 }, "geometry": { "type": "Point", "coordinates": [ 78.427300107972968, 17.335655718852081 ] } },
{ "type": "Feature", "properties": { "element": "way", "id": 768073664 }, "geometry": { "type": "Point", "coordinates": [ 78.536373090302149, 17.354931808861036 ] } },
{ "type": "Feature", "properties": { "element": "way", "id": 776424206 }, "geometry": { "type": "Point", "coordinates": [ 78.448112424552349, 17.438509539125796 ] } },
{ "type": "Feature", "properties": { "element": "way", "id": 776655516 }, "geometry": { "type": "Point", "coordinates": [ 78.547321928261766, 17.34745303150579 ] } },
{ "type": "Feature", "properties": { "element": "way", "id": 776683613 }, "geometry": { "type": "Point", "coordinates": [ 78.523298811285215, 17.368948408788569 ] } },
{ "type": "Feature", "properties": { "element": "way", "id": 786479000 }, "geometry": { "type": "Point", "coordinates": [ 78.303003333723339, 17.456226532926436 ] } },
{ "type": "Feature", "properties": { "element": "way", "id": 814833548 }, "geometry": { "type": "Point", "coordinates": [ 78.365080959368612, 17.456085200074572 ] } },
{ "type": "Feature", "properties": { "element": "way", "id": 835077247 }, "geometry": { "type": "Point", "coordinates": [ 78.386884383860675, 17.505803102737268 ] } },
{ "type": "Feature", "properties": { "element": "way", "id": 874580321 }, "geometry": { "type": "Point", "coordinates": [ 78.569576913771854, 17.348160975191703 ] } },
{ "type": "Feature", "properties": { "element": "way", "id": 879198037 }, "geometry": { "type": "Point", "coordinates": [ 78.345137736271198, 17.464778939005985 ] } },
{ "type": "Feature", "properties": { "element": "way", "id": 879760814 }, "geometry": { "type": "Point", "coordinates": [ 78.29602345, 17.50985055 ] } },
{ "type": "Feature", "properties": { "element": "way", "id": 884661856 }, "geometry": { "type": "Point", "coordinates": [ 78.3615686, 17.50390235 ] } },
{ "type": "Feature", "properties": { "element": "way", "id": 1014631587 }, "geometry": { "type": "Point", "coordinates": [ 78.546362123342703, 17.468375384253175 ] } },
{ "type": "Feature", "properties": { "element": "way", "id": 1018173942 }, "geometry": { "type": "Point", "coordinates": [ 78.538280775710192, 17.437827205516836 ] } },
{ "type": "Feature", "properties": { "element": "way", "id": 1043755643 }, "geometry": { "type": "Point", "coordinates": [ 78.335298471561046, 17.491401844382516 ] } },
{ "type": "Feature", "properties": { "element": "way", "id": 1051807880 }, "geometry": { "type": "Point", "coordinates": [ 78.55790233699301, 17.491101017540238 ] } },
{ "type": "Feature", "properties": { "element": "way", "id": 1082290137 }, "geometry": { "type": "Point", "coordinates": [ 78.48340471882392, 17.471525741464884 ] } },
{ "type": "Feature", "properties": { "element": "way", "id": 1082936184 }, "geometry": { "type": "Point", "coordinates": [ 78.309372433215373, 17.467002457718255 ] } },
{ "type": "Feature", "properties": { "element": "way", "id": 1122014050 }, "geometry": { "type": "Point", "coordinates": [ 78.429466114824834, 17.368507320389245 ] } },
{ "type": "Feature", "properties": { "element": "way", "id": 1150750011 }, "geometry": { "type": "Point", "coordinates": [ 78.366796628587068, 17.468793243097348 ] } },
{ "type": "Feature", "properties": { "element": "way", "id": 1150750013 }, "geometry": { "type": "Point", "coordinates": [ 78.366643803567513, 17.468824037046897 ] } },
{ "type": "Feature", "properties": { "element": "way", "id": 1157556423 }, "geometry": { "type": "Point", "coordinates": [ 78.44068285, 17.5166802 ] } },
{ "type": "Feature", "properties": { "element": "way", "id": 1157556424 }, "geometry": { "type": "Point", "coordinates": [ 78.440333182610999, 17.51665117441738 ] } },
{ "type": "Feature", "properties": { "element": "way", "id": 1236750011 }, "geometry": { "type": "Point", "coordinates": [ 78.553270454653301, 17.348705817774704 ] } }
]
}
